{"type":"FeatureCollection","features":[{"type":"Feature","geometry":{"type":"LineString","coordinates":[[121.2655449,29.381044],[121.2664354,29.3804737],[121.2665427,29.38024],[121.2665641,29.3798193],[121.2666285,29.3795202],[121.2674761,29.3779776],[121.267798,29.3774166],[121.2680876,29.3772109],[121.2683559,29.3769024],[121.2686563,29.3765845],[121.2699902,29.3756435],[121.2702334,29.375472],[121.2713017,29.374825],[121.2714994,29.3747053],[121.2719393,29.374537],[121.2723899,29.3744996],[121.2727225,29.3744996],[121.2730953,29.3743173],[121.2732817,29.3742143],[121.2737666,29.3739048]]},"properties":{"osmId":363951331,"kind":"unclassified","name":null,"routingIncluded":true}},{"type":"Feature","geometry":{"type":"LineString","coordinates":[[121.293472,29.437794],[121.2934452,29.4371495],[121.293354,29.4368038],[121.2931931,29.4365049],[121.2931877,29.4364395],[121.293236,29.4363601],[121.2934934,29.43622],[121.2938582,29.4359491],[121.2945394,29.4355101],[121.2947379,29.4353046],[121.2949792,29.4349963],[121.2954137,29.4348655],[121.2955907,29.4348422],[121.2957838,29.4347347],[121.2961646,29.4346927],[121.2962236,29.4346693],[121.2963109,29.43466],[121.2963699,29.4345689],[121.2964906,29.4345012],[121.2966355,29.4344335],[121.2967201,29.4343114],[121.2967791,29.4341923],[121.2968622,29.4336667],[121.296901,29.433325]]},"properties":{"osmId":363951371,"kind":"residential","name":null,"routingIncluded":true}},{"type":"Feature","geometry":{"type":"LineString","coordinates":[[121.2958592,29.4331013],[121.2959234,29.432853]]},"properties":{"osmId":363951372,"kind":"unclassified","name":null,"routingIncluded":true}},{"type":"Feature","geometry":{"type":"LineString","coordinates":[[121.3014219,29.4005037],[121.3012972,29.4007635],[121.3013508,29.4009598],[121.3013615,29.4012215],[121.3014259,29.4014272],[121.3014581,29.401558],[121.3013937,29.4016515],[121.3012757,29.4016234],[121.3011899,29.4015113],[121.301104,29.4013243],[121.3009431,29.4011281],[121.3007285,29.4009505],[121.3007285,29.4007822],[121.3007473,29.400635],[121.3007071,29.4005555],[121.3006668,29.4004925],[121.3005944,29.4004784],[121.3005461,29.4005182],[121.3004952,29.400614],[121.3004871,29.4007191],[121.3004362,29.4008313],[121.3003691,29.4008991],[121.299838,29.4011327],[121.2995806,29.401301],[121.2993499,29.4016655],[121.2992641,29.4017917],[121.2992211,29.4019412],[121.2990548,29.401974],[121.2989368,29.4019085],[121.2989046,29.4018104],[121.2988993,29.4017309],[121.2989744,29.4016375],[121.2990548,29.401544],[121.2991729,29.4013384],[121.2991729,29.401301],[121.2990978,29.4012262],[121.2982891,29.4013703],[121.2978305,29.4015584],[121.29707,29.4019646],[121.2966355,29.4020113],[121.2962171,29.4016702],[121.2961736,29.4016575],[121.2961205,29.4016421],[121.2958898,29.4017496],[121.2956699,29.4018665],[121.2954553,29.4018151],[121.2952193,29.4016889],[121.2950744,29.4015487],[121.2949725,29.4014085],[121.2948438,29.4013103],[121.2946399,29.4012916],[121.2944253,29.4014599],[121.294141,29.4016421],[121.2940445,29.4018478],[121.2940284,29.4021936],[121.2939372,29.4023712],[121.2936958,29.4028292],[121.2934973,29.4032545],[121.293508,29.4036938],[121.293669,29.4040957],[121.293567,29.4044415],[121.293449,29.4048434],[121.2930896,29.4054136],[121.292993,29.4056986],[121.2930413,29.4061099],[121.293213,29.4062127],[121.2934061,29.4062641],[121.2934061,29.4063342],[121.2933042,29.4063856],[121.2931057,29.4063482],[121.2929126,29.4062127],[121.2927409,29.4061052],[121.29258,29.4058622],[121.2926175,29.4055024],[121.2926712,29.4052687],[121.2926819,29.4048715],[121.2926551,29.404764],[121.2925424,29.404792],[121.2925317,29.4049135],[121.2925317,29.4050537],[121.2925156,29.4052593],[121.2924083,29.4053809],[121.29236,29.4055024],[121.292301,29.4058622],[121.2923279,29.4062968],[121.2925371,29.4065912],[121.2923386,29.406652],[121.2919845,29.4066099],[121.2918746,29.4065342],[121.2916788,29.406384],[121.2914289,29.4062335],[121.2912351,29.4061745],[121.2910787,29.4060443],[121.2909503,29.405845],[121.2907635,29.4056517],[121.2906677,29.4056558],[121.2904576,29.4057433],[121.2903315,29.4058287],[121.29007,29.405784],[121.2898738,29.4057616],[121.2898014,29.4056619],[121.2897594,29.4055073],[121.2898248,29.4053344],[121.2898762,29.4051432],[121.2898528,29.4050639],[121.2898014,29.4049886],[121.289673,29.4048726],[121.2895913,29.4048177],[121.2895773,29.4047709],[121.2896076,29.404714],[121.2897431,29.404716],[121.2899042,29.4048503],[121.2900116,29.4050028],[121.2901026,29.405251],[121.2901704,29.4053466],[121.2902521,29.4053975],[121.2903828,29.4053629],[121.2904389,29.4052449],[121.2905206,29.4050496],[121.2906234,29.4049825],[121.2907284,29.4049642],[121.2910974,29.4050395],[121.2912935,29.4051045],[121.2914266,29.405072],[121.2914826,29.4050171],[121.291499,29.4049357],[121.2915247,29.4046875],[121.2914733,29.4045675],[121.2914569,29.4044516],[121.2914663,29.4043641],[121.2915854,29.40424],[121.2915947,29.4041851],[121.291576,29.4041261],[121.2915153,29.4041383],[121.2913355,29.404299],[121.2912001,29.4044556],[121.2911534,29.4044963],[121.2910343,29.4045004],[121.2909129,29.4044455],[121.2907891,29.4043071],[121.2906234,29.4041566],[121.290622,29.4039835],[121.2906166,29.4038059],[121.2905147,29.4034835],[121.2903913,29.4032545],[121.2902465,29.4029834],[121.2901499,29.4028058],[121.289828,29.4027077],[121.2897261,29.4025394],[121.2896564,29.4024179],[121.2895706,29.4021936],[121.2893935,29.4020908],[121.289254,29.4018992],[121.2892058,29.4015393],[121.2891199,29.4011701],[121.2891253,29.4007542],[121.2891189,29.4005316],[121.2891025,29.4004523],[121.2890488,29.4004848],[121.2889647,29.4006069],[121.288827,29.4008835],[121.2887546,29.4009446],[121.2883109,29.4012782],[121.2880821,29.4014124],[121.2876501,29.4014409],[121.2870851,29.4014816],[121.2866368,29.4014816],[121.2864733,29.401447],[121.2863682,29.4013189],[121.2863145,29.4011988],[121.2862281,29.4011378],[121.2861931,29.4011012],[121.2862328,29.4010076],[121.2863122,29.400971],[121.2864686,29.4010503],[121.2864873,29.4011398],[121.2865504,29.4012416],[121.2866624,29.4012822],[121.2868236,29.4012477],[121.2870547,29.4011765],[121.2872228,29.4011032],[121.2873816,29.4010686],[121.2874073,29.4010239],[121.2873513,29.4009812],[121.2872158,29.400969],[121.2869356,29.4009934],[121.2868422,29.4009364],[121.2867792,29.4008042],[121.2864616,29.4007025],[121.2856117,29.4005194],[121.2854786,29.400436],[121.2854015,29.4003546],[121.2853665,29.4002265],[121.2854109,29.3998603],[121.2853665,29.3996182],[121.2853618,29.3994941],[121.2853572,29.3992846],[121.2852428,29.399189],[121.2851634,29.3991381],[121.2850676,29.3989916],[121.2850163,29.3988513],[121.2847501,29.398774],[121.2845586,29.3984729],[121.284206,29.3984403]]},"properties":{"osmId":467813026,"kind":"unclassified","name":null,"routingIncluded":true}},{"type":"Feature","geometry":{"type":"LineString","coordinates":[[121.2946399,29.4012916],[121.2940704,29.4010356],[121.2936273,29.4007373],[121.2928519,29.4001144],[121.2926303,29.4000179],[121.2924994,29.3998073],[121.2923282,29.3994388],[121.2922376,29.3993423],[121.2922376,29.3990791],[121.2919254,29.398772],[121.2916837,29.3984912],[121.2915729,29.3982806],[121.2916233,29.3978595],[121.2914607,29.3974366],[121.291583,29.3968593],[121.2916837,29.3961749]]},"properties":{"osmId":467813251,"kind":"unclassified","name":null,"routingIncluded":true}},{"type":"Feature","geometry":{"type":"LineString","coordinates":[[121.5389724,29.3186804],[121.5398784,29.3192144],[121.5404578,29.319785],[121.5419276,29.3204305],[121.5424533,29.3205147],[121.5427108,29.3204866],[121.542853,29.3205619],[121.5427564,29.3207116],[121.5422817,29.3208982],[121.5419839,29.3213945],[121.5425713,29.321553],[121.5428396,29.3215904],[121.543376,29.3218617],[121.5436335,29.3222733],[121.5439688,29.3224983],[121.544127,29.322741],[121.5451033,29.3233865],[121.5456854,29.3236956],[121.5462191,29.324088],[121.547233,29.3240419]]},"properties":{"osmId":529093807,"kind":"unclassified","name":null,"routingIncluded":true}},{"type":"Feature","geometry":{"type":"LineString","coordinates":[[121.53826,29.3183621],[121.5378949,29.3187682],[121.5378278,29.3188972],[121.5377706,29.3190486],[121.5373661,29.319859],[121.5373009,29.3199416],[121.5370839,29.3201326],[121.5369359,29.3201911],[121.5366655,29.3202272],[121.5365708,29.3202702],[121.5365175,29.3202857],[121.5364169,29.3203356],[121.5361978,29.3204974],[121.5361504,29.320518],[121.5359472,29.3205576],[121.5358406,29.3205576],[121.5357242,29.3205352],[121.5355959,29.3204492],[121.5354894,29.3204199],[121.5353868,29.3204234],[121.5352723,29.3204492],[121.5351026,29.3204595],[121.5349151,29.3204853],[121.5345066,29.3204561],[121.5344573,29.3204337],[121.5344672,29.3201016],[121.534552,29.3199777],[121.5345658,29.3198831],[121.5346921,29.3197885],[121.5348278,29.3197107],[121.5348453,29.3194606],[121.5349065,29.3192356]]},"properties":{"osmId":529093815,"kind":"residential","name":null,"routingIncluded":true}},{"type":"Feature","geometry":{"type":"LineString","coordinates":[[121.2731318,29.373666],[121.2728097,29.3731718]]},"properties":{"osmId":545526755,"kind":"service","name":null,"routingIncluded":true}},{"type":"Feature","geometry":{"type":"LineString","coordinates":[[121.2843445,29.3788328],[121.2843659,29.3785944],[121.2843445,29.3784051],[121.2842613,29.3782158],[121.2841755,29.3781106],[121.2840575,29.3779096],[121.2840521,29.3778418],[121.2841299,29.3776525],[121.2843552,29.3772295],[121.2843686,29.3770939],[121.2842935,29.3769864],[121.2841058,29.3768742],[121.2839878,29.376776],[121.2839502,29.3767153],[121.2839475,29.3766498],[121.2839985,29.3764605],[121.2841246,29.3761543],[121.2843043,29.3760468],[121.2843767,29.3760187],[121.2847817,29.3759136],[121.2852642,29.3756621],[121.2854817,29.3755279],[121.2862489,29.3750394],[121.2863186,29.3750207],[121.2863964,29.3750184],[121.2868148,29.3750861],[121.2870428,29.3750464],[121.2871072,29.3750067],[121.2871447,29.3749506],[121.2873539,29.3745953],[121.2875631,29.3744901],[121.2876356,29.3744784],[121.2881988,29.3745392],[121.2883276,29.3746023],[121.288408,29.3747145],[121.2884295,29.3747799],[121.2881452,29.3758014],[121.2881452,29.3759346],[121.288164,29.376],[121.2883437,29.3761099],[121.2884912,29.3761403],[121.2886333,29.3761169],[121.2892798,29.3757476],[121.2899423,29.3753199]]},"properties":{"osmId":928370840,"kind":"residential","name":null,"routingIncluded":true}},{"type":"Feature","geometry":{"type":"LineString","coordinates":[[121.269601,29.374185],[121.2696141,29.374725],[121.2697929,29.3752513],[121.2699902,29.3756435],[121.2700751,29.3757289],[121.2702575,29.3761707],[121.2703702,29.3762618],[121.2711078,29.376145],[121.2717515,29.3761333],[121.2721136,29.3761052],[121.2723523,29.376159],[121.2727493,29.3762198],[121.2730685,29.376187],[121.2740958,29.3758107],[121.2744901,29.3755279],[121.2747636,29.3753573],[121.2752143,29.3749249],[121.275394,29.3748057],[121.2755039,29.3745369],[121.2755334,29.3743616],[121.275496,29.3742931]]},"properties":{"osmId":928370841,"kind":"residential","name":null,"routingIncluded":true}},{"type":"Feature","geometry":{"type":"LineString","coordinates":[[121.5405061,29.3279237],[121.5404011,29.3281244],[121.5391816,29.3288573],[121.5386487,29.3293975],[121.538262,29.3296005],[121.538187,29.3296762],[121.5381633,29.329776],[121.537887,29.3302233],[121.5376897,29.3303954],[121.5373424,29.3306466],[121.5368885,29.3306706],[121.5368175,29.3305915],[121.5364859,29.3296005],[121.536482,29.3295042],[121.5365451,29.3293115],[121.5368411,29.3287575],[121.5370108,29.328644],[121.5372319,29.3286199],[121.5374253,29.3285476],[121.5375081,29.3284891],[121.5376265,29.3283137],[121.5378712,29.3277631],[121.5380251,29.3274959],[121.5381029,29.3272644],[121.538111,29.3270633],[121.5380198,29.3267757],[121.5379474,29.3265956],[121.5379634,29.3264086],[121.5380064,29.3257772],[121.538052,29.3256906],[121.5381217,29.3256602],[121.538398,29.3256205],[121.5385348,29.3256322]]},"properties":{"osmId":930103255,"kind":"unclassified","name":null,"routingIncluded":true}},{"type":"Feature","geometry":{"type":"LineString","coordinates":[[121.540409,29.3274932],[121.5404327,29.3272883],[121.5406261,29.3269872]]},"properties":{"osmId":930103256,"kind":"residential","name":null,"routingIncluded":true}},{"type":"Feature","geometry":{"type":"LineString","coordinates":[[121.540409,29.3274932],[121.5404417,29.3276899],[121.5405061,29.3279237]]},"properties":{"osmId":930103258,"kind":"residential","name":null,"routingIncluded":true}},{"type":"Feature","geometry":{"type":"LineString","coordinates":[[121.5400696,29.3246422],[121.539817,29.3249002],[121.5396942,29.3250228],[121.5395861,29.3251308],[121.5392232,29.3253039],[121.5385348,29.3256322]]},"properties":{"osmId":930103259,"kind":"residential","name":null,"routingIncluded":true}},{"type":"Feature","geometry":{"type":"LineString","coordinates":[[121.5385348,29.3256322],[121.538626,29.326163],[121.5386812,29.3262347],[121.5387467,29.3263197],[121.538803,29.3264647],[121.538752,29.3265348],[121.5387145,29.3266728]]},"properties":{"osmId":930603873,"kind":"residential","name":null,"routingIncluded":true}},{"type":"Feature","geometry":{"type":"LineString","coordinates":[[121.2733506,29.3736356],[121.2733823,29.3735096],[121.2733635,29.3734219],[121.2732764,29.3733156]]},"properties":{"osmId":936300877,"kind":"service","name":null,"routingIncluded":true}},{"type":"Feature","geometry":{"type":"LineString","coordinates":[[121.2477055,29.3609091],[121.2476103,29.3610073],[121.2473327,29.3615169],[121.2468874,29.3619751],[121.2468258,29.3621037],[121.2468901,29.3625011],[121.2468713,29.3625665],[121.246748,29.3626367],[121.2465093,29.3629312],[121.2465039,29.36338],[121.2466836,29.3636161],[121.2466192,29.3638031]]},"properties":{"osmId":936300881,"kind":"service","name":null,"routingIncluded":true}},{"type":"Feature","geometry":{"type":"LineString","coordinates":[[121.2970192,29.4330585],[121.297021,29.4330538]]},"properties":{"osmId":1172129455,"kind":"residential","name":null,"routingIncluded":true}},{"type":"Feature","geometry":{"type":"LineString","coordinates":[[121.296901,29.433325],[121.2970192,29.4330585]]},"properties":{"osmId":1172129456,"kind":"residential","name":null,"routingIncluded":true}},{"type":"Feature","geometry":{"type":"LineString","coordinates":[[121.2889693,29.3870261],[121.2889445,29.3867271],[121.2888855,29.3865776],[121.2887728,29.3864233],[121.2887514,29.3863532],[121.288805,29.3862878],[121.2890571,29.386213],[121.2894287,29.3862497],[121.2896849,29.3862918],[121.2901315,29.3865851],[121.2903233,29.3867627],[121.2906545,29.3867463],[121.2911319,29.386765],[121.291887,29.3868994],[121.2921351,29.3869111],[121.2923792,29.3869041],[121.292461,29.3869263],[121.2926004,29.3870478],[121.2930779,29.3873528],[121.2933702,29.3876905],[121.2938302,29.3881299],[121.2940555,29.3883449],[121.2949916,29.3890729],[121.2954342,29.3893113],[121.2956287,29.3894059],[121.2958329,29.3898339],[121.2961002,29.3907097],[121.2962438,29.3910888],[121.2962195,29.391239]]},"properties":{"osmId":1172152266,"kind":"unclassified","name":null,"routingIncluded":true}},{"type":"Feature","geometry":{"type":"LineString","coordinates":[[121.242972,29.3699748],[121.2430629,29.3703841],[121.2432399,29.3709171],[121.243315,29.3710994],[121.2434973,29.3713846],[121.2435617,29.3715155],[121.2435671,29.3715483],[121.2435027,29.3716885],[121.2435027,29.3717399],[121.2435992,29.3718007],[121.2438674,29.3719223],[121.2440766,29.3720579],[121.2441142,29.3721046],[121.2441839,29.3722729],[121.2443019,29.3724038],[121.2448865,29.3727498],[121.2451118,29.3728293]]},"properties":{"osmId":1172152276,"kind":"residential","name":null,"routingIncluded":true}},{"type":"Feature","geometry":{"type":"LineString","coordinates":[[121.2451118,29.3728293],[121.2454283,29.3729013],[121.2456375,29.3729901],[121.2459584,29.3730973]]},"properties":{"osmId":1172152277,"kind":"residential","name":null,"routingIncluded":true}},{"type":"Feature","geometry":{"type":"LineString","coordinates":[[121.2433934,29.3693248],[121.243011,29.3697725]]},"properties":{"osmId":1172152278,"kind":"residential","name":null,"routingIncluded":true}},{"type":"Feature","geometry":{"type":"LineString","coordinates":[[121.243011,29.3697725],[121.242972,29.3699748]]},"properties":{"osmId":1172152279,"kind":"residential","name":null,"routingIncluded":true}},{"type":"Feature","geometry":{"type":"LineString","coordinates":[[121.2958054,29.4333934],[121.2958592,29.4331013]]},"properties":{"osmId":1176536041,"kind":"unclassified","name":null,"routingIncluded":true}},{"type":"Feature","geometry":{"type":"LineString","coordinates":[[121.5405559,29.3223166],[121.5410872,29.3224997],[121.54144,29.3226308],[121.5415894,29.3226864],[121.5421332,29.3229899],[121.5424444,29.3231712],[121.5425784,29.3233136],[121.5425861,29.3235675],[121.5424999,29.3237743],[121.5424275,29.3238791],[121.5422611,29.3239368],[121.5419977,29.3239677],[121.5416341,29.3239664],[121.541403,29.3239315],[121.5412305,29.3238616],[121.5410456,29.3237367],[121.5409224,29.3235836],[121.5408854,29.3234103],[121.5409378,29.323225],[121.5410579,29.3230477],[121.5412151,29.3229469],[121.541363,29.3228435],[121.5414323,29.3226998],[121.54144,29.3226308]]},"properties":{"osmId":1182057769,"kind":"residential","name":null,"routingIncluded":true}},{"type":"Feature","geometry":{"type":"LineString","coordinates":[[121.28454,29.4299969],[121.2840523,29.4301799],[121.2826028,29.430777],[121.281833,29.4310831],[121.2816035,29.4312526],[121.2800872,29.431541],[121.2797938,29.4315562],[121.2796457,29.4316852],[121.2795627,29.4316206]]},"properties":{"osmId":1191984826,"kind":"unclassified","name":null,"routingIncluded":true}},{"type":"Feature","geometry":{"type":"LineString","coordinates":[[121.2794913,29.4315651],[121.2793174,29.4314297]]},"properties":{"osmId":1191984828,"kind":"unclassified","name":null,"routingIncluded":true}},{"type":"Feature","geometry":{"type":"LineString","coordinates":[[121.2795627,29.4316206],[121.2794913,29.4315651]]},"properties":{"osmId":1191984829,"kind":"unclassified","name":null,"routingIncluded":true}},{"type":"Feature","geometry":{"type":"LineString","coordinates":[[121.5031487,29.2431652],[121.5031208,29.24338],[121.5031086,29.2434935],[121.5030618,29.2435609],[121.502948,29.2435645],[121.5028403,29.2435272],[121.502411,29.2434337],[121.5022138,29.2434089],[121.5017442,29.2434036],[121.5012787,29.2433504],[121.5011873,29.2432865],[121.5010938,29.2430825],[121.5010511,29.2430205],[121.5008803,29.2429903],[121.50024,29.2429868],[121.5001845,29.2430069],[121.5001079,29.2430347],[121.4994452,29.243345],[121.4993802,29.243432],[121.499309,29.2436324],[121.4991647,29.2439658],[121.4989878,29.2442372],[121.4986622,29.2446934],[121.4986321,29.2447356],[121.4983272,29.2452464]]},"properties":{"osmId":1210271573,"kind":"unclassified","name":null,"routingIncluded":true}},{"type":"Feature","geometry":{"type":"LineString","coordinates":[[121.2695946,29.37386],[121.269601,29.374185]]},"properties":{"osmId":1249481782,"kind":"residential","name":null,"routingIncluded":true}},{"type":"Feature","geometry":{"type":"LineString","coordinates":[[121.2695945,29.3738551],[121.2695946,29.37386]]},"properties":{"osmId":1249481783,"kind":"residential","name":null,"routingIncluded":true}},{"type":"Feature","geometry":{"type":"LineString","coordinates":[[121.5292201,29.3358019],[121.5281724,29.335287],[121.5275951,29.3349176],[121.5271981,29.3344638],[121.5269845,29.3339984],[121.5269078,29.3336027],[121.5268544,29.3333846],[121.5268177,29.333117],[121.5268243,29.3329773],[121.5267543,29.3323403],[121.5268076,29.3322297],[121.5270646,29.3317235],[121.5271647,29.3316101],[121.5272147,29.3313541],[121.5272014,29.3309847],[121.5268777,29.3304029],[121.5265707,29.3293498],[121.5263872,29.3285149],[121.5264573,29.3282152],[121.5263939,29.328],[121.5264039,29.3275927],[121.5260535,29.3266036],[121.5257199,29.3255999],[121.5259634,29.3253905],[121.5260602,29.3252595],[121.526227,29.3252537],[121.526464,29.3253759]]},"properties":{"osmId":1252778460,"kind":"unclassified","name":null,"routingIncluded":true}},{"type":"Feature","geometry":{"type":"LineString","coordinates":[[121.5386726,29.3185464],[121.5386707,29.3183277],[121.5386859,29.3177588],[121.5388275,29.3167357],[121.5386707,29.3164976]]},"properties":{"osmId":1252778463,"kind":"service","name":null,"routingIncluded":true}},{"type":"Feature","geometry":{"type":"LineString","coordinates":[[121.5349065,29.3192356],[121.5349597,29.3191024]]},"properties":{"osmId":1331945415,"kind":"residential","name":null,"routingIncluded":true}},{"type":"Feature","geometry":{"type":"LineString","coordinates":[[121.5349597,29.3191024],[121.5350372,29.3189082],[121.5353616,29.3183632],[121.5354839,29.3181076]]},"properties":{"osmId":1331945416,"kind":"residential","name":null,"routingIncluded":true}}]}