{"type":"FeatureCollection","features":[{"type":"Feature","properties":{"osmId":248896376,"name":null,"sourceUrl":"https://www.openstreetmap.org/way/248896376","boat":"no","source":"landsat","waterway":"river"},"geometry":{"type":"LineString","coordinates":[[121.2528913,29.3730981],[121.2530645,29.3724119],[121.2532299,29.3715335],[121.2528992,29.3710532],[121.2529622,29.3708405],[121.2535291,29.3705385],[121.2540646,29.3702572],[121.2547182,29.3701542],[121.2552064,29.3703395],[121.2556395,29.3703532],[121.2564348,29.3699758],[121.2578915,29.3700307],[121.2584742,29.3702503],[121.2592459,29.3703395],[121.2598522,29.3701268],[121.2603483,29.3703258],[121.2606869,29.3706346],[121.260931,29.3706964],[121.261435,29.3708748],[121.2619626,29.3709297],[121.2634902,29.3709434],[121.2641044,29.3711355],[121.2647107,29.3706964],[121.2653092,29.370662],[121.2657344,29.3711904],[121.2660021,29.3713894],[121.2664195,29.3713826],[121.2668919,29.3710669],[121.2676872,29.3710463],[121.2678526,29.3711973],[121.2678762,29.3715198],[121.2674668,29.3720345],[121.2671518,29.3725286],[121.2673171,29.3728099],[121.2680967,29.3733657],[121.2691125,29.3741137],[121.2696165,29.3740519],[121.2711909,29.3742774],[121.2719741,29.374406],[121.2724328,29.3743943],[121.2727681,29.3743429],[121.2731221,29.3741839],[121.2735137,29.3739338],[121.273782,29.373665],[121.2738276,29.3734897],[121.2737766,29.3732957],[121.2735647,29.3731672],[121.2732106,29.3730222],[121.2730631,29.372868],[121.2730658,29.3727114],[121.2731781,29.3721158],[121.2733447,29.3719003],[121.2734789,29.3716665],[121.2734789,29.3713861],[121.2733823,29.3711663],[121.2731624,29.3709373],[121.2730068,29.3707316],[121.2730014,29.3703997],[121.2732321,29.3700771],[121.2739472,29.3698746],[121.2742269,29.3697731],[121.2744813,29.3695787],[121.274649,29.3689477],[121.2749843,29.3682504],[121.2755025,29.367905],[121.2758531,29.3678186],[121.2764171,29.3675065],[121.276539,29.3670216],[121.2768591,29.3666165],[121.2777432,29.3663574],[121.2781471,29.3661383],[121.2781623,29.3657065],[121.2780772,29.3654482],[121.2779565,29.3650822],[121.277766,29.3647302],[121.277827,29.3643449],[121.2782919,29.3638999],[121.2788025,29.3632822],[121.2790845,29.3625184],[121.2790083,29.3619339],[121.2784519,29.3611036],[121.2784748,29.3602069],[121.2781547,29.3598017],[121.2778422,29.3591641],[121.2779032,29.3588386],[121.2788635,29.3581611],[121.279275,29.3577227],[121.2792293,29.3571713],[121.2792293,29.3564074],[121.2802756,29.3546206],[121.2808818,29.3542185],[121.281386,29.3541904],[121.2817883,29.3543962],[121.2822443,29.3545832],[121.2828934,29.3546253],[121.2835801,29.3546627],[121.2842399,29.354672],[121.2851304,29.3547422],[121.2854522,29.3545785],[121.2858224,29.3541296],[121.2861764,29.3533815],[121.2867129,29.352437],[121.2872761,29.3517263],[121.2875014,29.3512307],[121.2874478,29.3506369],[121.2872547,29.3502488],[121.2869596,29.350015],[121.2863374,29.3498654],[121.2855595,29.3497999],[121.2852323,29.349697],[121.2849212,29.3494118],[121.2848622,29.3490845],[121.2850392,29.3488554],[121.2854254,29.3487852],[121.2858546,29.348673],[121.2862784,29.3484018],[121.286568,29.3478968],[121.2867075,29.3475134],[121.2865788,29.3470972],[121.2860691,29.3464332],[121.2859505,29.3460529],[121.2859029,29.3459001],[121.2859833,29.3454045],[121.2863105,29.3451894],[121.2867451,29.345138],[121.2873298,29.3452315],[121.2876946,29.3452642],[121.2880164,29.3450818],[121.2880969,29.3448293],[121.2880969,29.3444225],[121.2880969,29.344025],[121.2883115,29.3437491],[121.2888318,29.3434779],[121.2900178,29.3432021],[121.2913497,29.3391384],[121.2926816,29.3381709],[121.2931699,29.3372807],[121.294262,29.336822],[121.294466,29.3358868],[121.2938028,29.3353507],[121.2924596,29.3345715],[121.2924596,29.3335652],[121.2935695,29.3328685],[121.2933031,29.3311268],[121.2923912,29.3301403],[121.2918539,29.3292971],[121.2924449,29.3280791],[121.2940031,29.3276575],[121.2985703,29.3242378],[121.2999823,29.3218133],[121.3006883,29.3177777],[121.2988564,29.3145693]]}},{"type":"Feature","properties":{"osmId":301037503,"name":null,"sourceUrl":"https://www.openstreetmap.org/way/301037503","waterway":"river"},"geometry":{"type":"LineString","coordinates":[[121.2617147,29.4221894],[121.2619508,29.4221146],[121.2623477,29.4220772],[121.2627447,29.4215539],[121.2628949,29.4214324],[121.2632704,29.4213296],[121.2634528,29.421367],[121.2637747,29.421367],[121.2639785,29.4212362],[121.2642038,29.4213203],[121.264869,29.4213483],[121.2653947,29.4214698],[121.2659741,29.4214511],[121.2663711,29.4213951],[121.2667573,29.4214137],[121.2676371,29.4214231],[121.2680448,29.4213203],[121.2682701,29.4214511],[121.2688065,29.4215165],[121.2694395,29.4216006],[121.2698424,29.4216787],[121.2702227,29.4216941],[121.270566,29.4214605],[121.2709523,29.4212549],[121.2714243,29.4213016],[121.2719501,29.4214511],[121.2723148,29.4214885],[121.2732053,29.4213016],[121.2736667,29.4213483],[121.2743104,29.4211614],[121.274724,29.4210152],[121.2750614,29.421124],[121.2752545,29.4213296],[121.2755013,29.4213483],[121.276027,29.42161],[121.276778,29.4221146],[121.2778509,29.4226847],[121.2782801,29.4230304],[121.2790847,29.4236752],[121.2794817,29.4238902],[121.279943,29.4244696],[121.2801147,29.4249181],[121.2803616,29.4254308],[121.280488,29.4255391],[121.2807475,29.4257602],[121.2807791,29.4258488],[121.2806731,29.4269641],[121.2808877,29.4275061],[121.281274,29.4276743],[121.2820732,29.4275099],[121.2829262,29.4277117],[121.2832749,29.4281266],[121.283704,29.4290424],[121.284278,29.4294311],[121.2849915,29.4296404],[121.285135,29.4296586],[121.2860215,29.4297712],[121.2872606,29.4294498],[121.2884033,29.4291919],[121.2889826,29.4295283],[121.2894118,29.4298273],[121.2895781,29.4301973],[121.2890416,29.4309636],[121.2886983,29.4315429],[121.2887828,29.4317743],[121.2888485,29.4319541],[121.2894279,29.432496],[121.2905007,29.4325895],[121.2930328,29.432795],[121.2954146,29.4328324],[121.2965572,29.4331538],[121.2991053,29.4336547],[121.3008433,29.4339724],[121.3016856,29.4338266],[121.3026887,29.4331875],[121.3033163,29.4325745],[121.3038474,29.432496],[121.3048559,29.4326829],[121.3055211,29.4329632],[121.3068783,29.4333594],[121.3085252,29.4331875],[121.3103706,29.4335425],[121.3123876,29.4336921],[121.313718,29.432739],[121.3145977,29.4316177],[121.3147694,29.4300478],[121.3146192,29.4274501],[121.3145396,29.4265699],[121.3140827,29.425712],[121.3138438,29.425103],[121.3138038,29.4244607],[121.3141954,29.4233421],[121.3150483,29.4221805],[121.3156415,29.4211339],[121.3158852,29.420704],[121.3171297,29.4206105],[121.3188038,29.4207668],[121.3194525,29.421417],[121.3198978,29.4230403],[121.3199407,29.4244981],[121.3201982,29.4258241],[121.3200962,29.426482],[121.3203108,29.4273604],[121.3210565,29.4285714],[121.3220435,29.4293937],[121.3239318,29.4302534],[121.3249028,29.4297899],[121.3270432,29.4286088],[121.3279004,29.4282911],[121.3288875,29.4281976],[121.3300033,29.4275435],[121.3317842,29.4264222],[121.3317199,29.4256559],[121.3311405,29.4245541],[121.3305826,29.4232085],[121.3305676,29.4222207],[121.3310397,29.4214918],[121.3329212,29.42119]]}},{"type":"Feature","properties":{"osmId":545526760,"name":null,"sourceUrl":"https://www.openstreetmap.org/way/545526760","waterway":"dam"},"geometry":{"type":"LineString","coordinates":[[121.2739214,29.3696914],[121.2739241,29.3697685],[121.2739295,29.3698316],[121.2739472,29.3698746],[121.2739965,29.3699205],[121.2740475,29.3699462],[121.2741414,29.3699719]]}},{"type":"Feature","properties":{"osmId":1162394584,"name":null,"sourceUrl":"https://www.openstreetmap.org/way/1162394584","waterway":"stream"},"geometry":{"type":"LineString","coordinates":[[121.5057528,29.3079241],[121.5064244,29.30844],[121.506637,29.3091976],[121.5073148,29.310197],[121.5080481,29.3106215],[121.5081806,29.3108687],[121.5077154,29.3109681],[121.5073426,29.3110863],[121.5072933,29.3115457],[121.5075891,29.3117391],[121.5082422,29.3121475],[121.5086674,29.3124967],[121.5092652,29.3127788],[121.5098937,29.3135096],[121.5107348,29.3140066],[121.5111846,29.3145895],[121.5115513,29.3150355],[121.5118409,29.3152289],[121.512568,29.3152854],[121.5130733,29.315057],[121.513631,29.3149872],[121.51405,29.3153149],[121.5142072,29.3161182],[121.5142965,29.3165775],[121.5146416,29.3166823],[121.5151037,29.3169913],[121.5156306,29.3170665],[121.5163208,29.3168462],[121.5177011,29.3167844],[121.5191307,29.3168999],[121.5195805,29.3173888],[121.5194757,29.3177381],[121.5192601,29.3181545],[121.5195528,29.3184446],[121.5201443,29.3189497],[121.5205695,29.3192183],[121.5207975,29.3191995],[121.5211765,29.3188341],[121.5215339,29.3183264],[121.5218143,29.3181733],[121.5223812,29.3180819],[121.5228002,29.3184527],[121.523287,29.3194198],[121.5240111,29.3206045],[121.5241466,29.3209214],[121.5240912,29.3211095],[121.5239309,29.3212411],[121.5235643,29.3212948],[121.5230436,29.3211954],[121.5226708,29.3210289],[121.52207,29.3209349],[121.5217465,29.3211041],[121.5215616,29.3212814],[121.5214076,29.3217999],[121.5213135,29.3223928],[121.521272,29.3226541],[121.5213244,29.3235621],[121.5214599,29.3240053],[121.5216232,29.3244808],[121.5218482,29.3246688],[121.5222949,29.3247387],[121.522754,29.3246984],[121.5250001,29.3240725],[121.525339,29.3240993],[121.5254376,29.3241745],[121.5255023,29.3243841],[121.5254006,29.3246527],[121.5252127,29.3249079],[121.525074,29.3253081],[121.5251541,29.3256036],[121.5253975,29.3256788],[121.5256409,29.325926],[121.5258905,29.3266136],[121.5261339,29.3272153],[121.5262646,29.3279778],[121.5261924,29.3285879],[121.5262423,29.3295222],[121.5263687,29.3299371],[121.5264641,29.330248],[121.5266532,29.3304098]]}},{"type":"Feature","properties":{"osmId":1182169967,"name":null,"sourceUrl":"https://www.openstreetmap.org/way/1182169967","waterway":"stream"},"geometry":{"type":"LineString","coordinates":[[121.5314526,29.3141446],[121.5315466,29.3139551],[121.5321517,29.3136195],[121.5327069,29.313494],[121.533077,29.3136144],[121.5335646,29.3136247],[121.5337732,29.3132277],[121.5337908,29.3130663],[121.5340053,29.312951],[121.5345692,29.3128665],[121.5348248,29.3128383],[121.5350275,29.312677],[121.5350598,29.3125336],[121.535048,29.3123466],[121.5351567,29.3121929],[121.5352772,29.3121698],[121.5354564,29.3122211],[121.535568,29.312157],[121.5360497,29.3118036],[121.5363215,29.3114309],[121.5363705,29.3111339],[121.5366399,29.3107612],[121.5373367,29.3103963],[121.5379978,29.3099595],[121.5388527,29.3093306],[121.539082,29.3091384],[121.5392934,29.3088375],[121.5393313,29.3087016],[121.5394381,29.3086085],[121.5395895,29.308558],[121.5397565,29.3085813],[121.5399747,29.3086453],[121.5402485,29.3085929],[121.54046,29.3084512],[121.5407084,29.3081214],[121.5410572,29.3076989],[121.5415146,29.307317],[121.5417743,29.3073305],[121.5421812,29.3074555],[121.5425494,29.3073508],[121.5426076,29.3070567],[121.5426929,29.3066748],[121.5431929,29.3065531],[121.5441541,29.3066613],[121.5447859,29.3065768],[121.5452006,29.3063638],[121.5456153,29.3060732],[121.5460107,29.3058568],[121.5463246,29.305823],[121.5471618,29.3057892],[121.5477936,29.3057622],[121.5481696,29.3057318],[121.5482781,29.3055797],[121.5480533,29.3054851],[121.5480572,29.305262],[121.5484642,29.304782]]}},{"type":"Feature","properties":{"osmId":1191984827,"name":null,"sourceUrl":"https://www.openstreetmap.org/way/1191984827","waterway":"stream"},"geometry":{"type":"LineString","coordinates":[[121.2784576,29.4323379],[121.278658,29.4320875],[121.2789921,29.4318724],[121.2793087,29.4317029],[121.2797502,29.4314803],[121.2799681,29.4310628],[121.2803922,29.4309161],[121.2809906,29.4307061],[121.2811765,29.4305821],[121.2814147,29.4305973],[121.2820015,29.4306758],[121.2824518,29.4307567],[121.2826899,29.4307086],[121.2841482,29.4300129],[121.2848744,29.4297548],[121.285135,29.4296586]]}},{"type":"Feature","properties":{"osmId":1210271569,"name":null,"sourceUrl":"https://www.openstreetmap.org/way/1210271569","waterway":"dam"},"geometry":{"type":"LineString","coordinates":[[121.5030541,29.237339],[121.5048987,29.2377583]]}},{"type":"Feature","properties":{"osmId":1347060996,"name":null,"sourceUrl":"https://www.openstreetmap.org/way/1347060996","waterway":"dam"},"geometry":{"type":"LineString","coordinates":[[121.5397686,29.3254907],[121.5403613,29.3258239]]}},{"type":"Feature","properties":{"osmId":1347061002,"name":null,"sourceUrl":"https://www.openstreetmap.org/way/1347061002","waterway":"dam"},"geometry":{"type":"LineString","coordinates":[[121.5348065,29.321431],[121.5352263,29.3213608],[121.5352491,29.3217303],[121.5350533,29.3217561],[121.5348065,29.321431]]}}]}
