{"type":"FeatureCollection","features":[{"type":"Feature","properties":{"osmId":237427990,"name":"象山-义乌","sourceUrl":"https://www.openstreetmap.org/way/237427990","highway":"trunk","ref":"G527","source":"bing","movement":"road"},"geometry":{"type":"LineString","coordinates":[[121.268812,29.3737892],[121.2688614,29.3737667],[121.268946,29.37376],[121.2695945,29.3738551],[121.2698417,29.3738913],[121.2702293,29.3739552],[121.2704158,29.3739969],[121.2706572,29.3740589],[121.2707484,29.3740752],[121.2713124,29.3740896],[121.2719272,29.3741032],[121.2720653,29.3740893],[121.2721834,29.3740659],[121.2723739,29.3740036],[121.2725079,29.3739525],[121.2726755,29.3738766],[121.2728345,29.3737996],[121.2729579,29.3737398],[121.2730657,29.3736875],[121.2731318,29.373666],[121.2731744,29.3736522],[121.2732589,29.37363],[121.2733506,29.3736356],[121.2734453,29.3736709],[121.2735396,29.3737193]]}},{"type":"Feature","properties":{"osmId":237427991,"name":"象山-义乌","sourceUrl":"https://www.openstreetmap.org/way/237427991","cycleway":"shared_lane","highway":"trunk","ref":"G527","source":"bing","movement":"road"},"geometry":{"type":"LineString","coordinates":[[121.2737364,29.3738742],[121.2737666,29.3739048],[121.2740107,29.3741345],[121.2741293,29.3742038],[121.274659,29.3744204],[121.2747784,29.3744527],[121.2749104,29.3744659],[121.2750238,29.3744527],[121.275162,29.374415],[121.275496,29.3742931],[121.2758703,29.3741565],[121.2769107,29.37407],[121.2771261,29.3740846],[121.278287,29.3741631],[121.2785462,29.3741365],[121.2790647,29.3739837],[121.2792629,29.3740036],[121.2799263,29.3742628],[121.2800407,29.3744089],[121.2802389,29.3749804],[121.2803609,29.3751398],[121.2804905,29.3751797],[121.2807116,29.3751863],[121.2810548,29.3751332],[121.2815656,29.3752262],[121.2818935,29.3752262],[121.2826178,29.3751863],[121.2827017,29.3751199],[121.2826636,29.3750335],[121.2825111,29.3750202],[121.2818477,29.3750069],[121.2817257,29.3749471],[121.2814512,29.3747345],[121.2812987,29.3745817],[121.2812377,29.3744554],[121.2812126,29.3742341],[121.2812203,29.3740214],[121.2812201,29.3738684],[121.2812671,29.3738098],[121.2813216,29.3737533],[121.2813928,29.3737322],[121.2814589,29.3737288],[121.2815159,29.3737409],[121.2815607,29.3737688],[121.2815923,29.3738342],[121.2815961,29.3739106],[121.2814817,29.3742096],[121.2814589,29.3744488],[121.2815122,29.3746216],[121.2816571,29.3747345],[121.281802,29.374781],[121.2820079,29.3747744],[121.2824958,29.3747079],[121.2828085,29.3747345],[121.2831439,29.3748608],[121.2832659,29.3748608],[121.2836701,29.3748408],[121.2838226,29.3749206],[121.2838607,29.37508],[121.2837768,29.3753524],[121.2836777,29.3754455],[121.2835709,29.3755186],[121.2832888,29.3755451],[121.2831439,29.3756249],[121.2830143,29.3757511],[121.282839,29.3758774],[121.2827703,29.3760169],[121.2827932,29.3761631],[121.2829457,29.3763624],[121.282961,29.3764421],[121.2829,29.3765418],[121.2825111,29.3769405],[121.2825111,29.3771066],[121.282595,29.3772328],[121.2829457,29.377359],[121.2832964,29.3773657],[121.2837311,29.377266],[121.2838759,29.3773059],[121.2839141,29.3774454],[121.2838302,29.377585],[121.283623,29.3778699],[121.2836149,29.3780615],[121.2837946,29.378162],[121.2840843,29.3782345],[121.284205,29.378321],[121.2842077,29.378501],[121.2843445,29.3788328],[121.2843888,29.3790303],[121.284433,29.3792278],[121.2845027,29.379513],[121.284585,29.3804154],[121.2849129,29.3816246],[121.2849971,29.3818099],[121.2850538,29.3819348],[121.285632,29.3832078],[121.2857669,29.3835048],[121.2858584,29.3840031],[121.2860337,29.3850529],[121.2862244,29.3861424],[121.2862015,29.3863617],[121.2860414,29.3869729],[121.2860414,29.3871058],[121.2860642,29.3875908],[121.285988,29.3879827],[121.2857211,29.3886803],[121.285439,29.3892118],[121.285439,29.3893845],[121.2855534,29.3895639],[121.2861176,29.3899957],[121.2862701,29.3902083],[121.2866132,29.3908992],[121.2867886,29.3910587],[121.2871393,29.3913975],[121.2874291,29.3917297],[121.2875511,29.3917895],[121.2879247,29.391909],[121.2880772,29.3920485],[121.2888473,29.3933241],[121.2894115,29.3940615],[121.2895488,29.394367],[121.2895793,29.3946793],[121.2895869,29.394852],[121.2896784,29.3949251],[121.2897775,29.3949184],[121.2898538,29.3948387],[121.2898385,29.3946527],[121.2897013,29.3942541],[121.2896326,29.3937957],[121.2896708,29.3936629],[121.2898233,29.3935101],[121.2899834,29.3933041],[121.2900063,29.3931048],[121.289869,29.3928258],[121.2895107,29.3923409],[121.2894497,29.3921748],[121.2893887,29.3918758],[121.2892895,29.3917363],[121.2890532,29.3913975],[121.2889922,29.3912314],[121.2888778,29.3906667],[121.2887634,29.3904741],[121.2885271,29.3900223],[121.2884737,29.3898296],[121.2884813,29.3894177],[121.2884356,29.3891586],[121.2884081,29.3890266],[121.2883746,29.3888663],[121.2884051,29.3886537],[121.2885576,29.3883946],[121.2888778,29.3877834],[121.2889693,29.3875243],[121.2889552,29.3873342],[121.288954,29.3873184],[121.2889312,29.3871191],[121.2889693,29.3870261],[121.2891065,29.3869928],[121.2892133,29.3870526],[121.2892667,29.3872054],[121.2894039,29.3879827],[121.289503,29.3881953],[121.2901608,29.3888669],[121.2902579,29.388966],[121.2905324,29.3896303],[121.2909289,29.3900555],[121.2914473,29.3904143],[121.291638,29.3906601],[121.291699,29.3908727],[121.2917676,29.3912048],[121.2919811,29.3916234],[121.2921717,29.3918758],[121.2922708,29.3921017],[121.2923318,29.3922811],[121.2924767,29.392487],[121.2927664,29.3927594],[121.2928656,29.3930716],[121.293323,29.3939552],[121.2935442,29.3942209],[121.2939635,29.3945265],[121.2940017,29.3947391],[121.2939559,29.3956625],[121.2939712,29.3958219],[121.2940474,29.3959747],[121.2942685,29.396267],[121.2943066,29.3964663],[121.2942456,29.3969844],[121.2942685,29.3976022],[121.2944591,29.3980539],[121.2946269,29.3982865],[121.2952445,29.3989308],[121.2954961,29.3992563],[121.2956791,29.3995287],[121.2958697,29.3996549],[121.2960527,29.3996881],[121.2968305,29.3996748],[121.2971354,29.399801],[121.2974709,29.3999472],[121.2979055,29.4002395],[121.2981711,29.400358],[121.2986366,29.4002081],[121.2991583,29.3999642],[121.2997719,29.3997587],[121.2999086,29.3997307],[121.3000715,29.3996975],[121.3004751,29.399615],[121.3007953,29.3995353],[121.3010546,29.3995752],[121.3012452,29.399708],[121.3012995,29.3998736]]}},{"type":"Feature","properties":{"osmId":237427992,"name":"象山-义乌","sourceUrl":"https://www.openstreetmap.org/way/237427992","highway":"trunk","ref":"G527","source":"bing","movement":"road"},"geometry":{"type":"LineString","coordinates":[[121.2479599,29.379065],[121.2481424,29.3790334],[121.2484245,29.3788673],[121.2487753,29.3783224],[121.2488973,29.3780567],[121.2488973,29.3778108],[121.2488476,29.3775107],[121.2488285,29.3773955],[121.2487905,29.3771663],[121.2488134,29.3769471],[121.2490269,29.3764288],[121.2491336,29.3758906],[121.2492556,29.3756846],[121.249431,29.3755451],[121.2498046,29.3753524],[121.2501172,29.3753325],[121.2511161,29.3753923],[121.2513143,29.3753657],[121.2515431,29.3752461],[121.252397,29.3747478],[121.2526944,29.3746415],[121.2531138,29.3746548],[121.2536628,29.3748275],[121.2540821,29.3748674],[121.2544405,29.374874],[121.2551953,29.3751199],[121.2557291,29.3753192],[121.2563467,29.3757245],[121.2565449,29.3758175],[121.2570405,29.3759637],[121.2572693,29.3758973],[121.2575819,29.3757245],[121.2579555,29.3754654],[121.2582834,29.3754189],[121.2588013,29.3756163],[121.2588933,29.3756514],[121.258962,29.3757444],[121.2589772,29.3759106],[121.2589238,29.376183],[121.2589696,29.3763292],[121.2590535,29.3764089],[121.2595186,29.3765949],[121.2596634,29.3767876],[121.2597397,29.37706],[121.2596711,29.3772328],[121.2594195,29.3775982],[121.2594347,29.3779238],[121.2595186,29.3780832],[121.261379,29.3792061],[121.2617298,29.3794121],[121.2622177,29.379545],[121.2623626,29.3796911],[121.262477,29.3801496],[121.2625456,29.380216],[121.2626752,29.3802492],[121.2630031,29.3802027],[121.2631708,29.380236],[121.2633538,29.3804153],[121.2635063,29.3804685],[121.2637732,29.3804884],[121.2639638,29.3804951],[121.2640706,29.380422],[121.2641011,29.3802958],[121.2640401,29.3801496],[121.2638189,29.3800101],[121.2633233,29.3798506],[121.2631632,29.3796646],[121.2630946,29.3793656],[121.2631403,29.3791065],[121.2634606,29.3784686],[121.2639867,29.3778308],[121.2642307,29.3774985],[121.2644213,29.3773657],[121.2646958,29.3773457],[121.2649093,29.377452],[121.265077,29.3776713],[121.2651075,29.377864],[121.2650542,29.3780301],[121.2649093,29.3783158],[121.2649093,29.3783799],[121.2649093,29.378442],[121.264955,29.3784952],[121.2650923,29.3784885],[121.265199,29.3782826],[121.2653058,29.3778573],[121.2652982,29.3777045],[121.2649627,29.377153],[121.2647949,29.3770534],[121.2643984,29.3770268],[121.2643222,29.3769803],[121.2643146,29.3768541],[121.2643832,29.376668],[121.2646043,29.3763624],[121.2647568,29.376276],[121.2650084,29.3762959],[121.2652219,29.3762893],[121.2653897,29.3763358],[121.2657099,29.3765484],[121.2660683,29.3766946],[121.2661979,29.3768275],[121.2663199,29.3769737],[121.2664419,29.3770135],[121.2667621,29.3769803],[121.2668536,29.3769072],[121.2669146,29.3767677],[121.2669146,29.3766614],[121.266846,29.3763889],[121.2668917,29.376183],[121.2670061,29.3759637],[121.267029,29.3758375],[121.2669909,29.3757112],[121.2668612,29.3755916],[121.2667087,29.3755385],[121.2664571,29.3755052],[121.2656794,29.3755052],[121.265565,29.3754853],[121.2654964,29.3753923],[121.2655345,29.3752528],[121.2656184,29.375173],[121.2657328,29.3751531],[121.2662284,29.3750601],[121.2670061,29.3748408],[121.2673797,29.3746946],[121.2676618,29.3744953],[121.2684424,29.3741169],[121.2685599,29.3740546],[121.2686348,29.3739959]]}},{"type":"Feature","properties":{"osmId":237427996,"name":"象山-义乌","sourceUrl":"https://www.openstreetmap.org/way/237427996","bridge":"yes","highway":"trunk","layer":"1","ref":"G527","source":"bing","movement":"road"},"geometry":{"type":"LineString","coordinates":[[121.2686348,29.3739959],[121.268812,29.3737892]]}},{"type":"Feature","properties":{"osmId":237427998,"name":"象山-义乌","sourceUrl":"https://www.openstreetmap.org/way/237427998","bridge":"yes","highway":"trunk","layer":"1","ref":"G527","source":"bing","movement":"road"},"geometry":{"type":"LineString","coordinates":[[121.2735396,29.3737193],[121.2737364,29.3738742]]}},{"type":"Feature","properties":{"osmId":363951331,"name":null,"sourceUrl":"https://www.openstreetmap.org/way/363951331","highway":"unclassified","movement":"road"},"geometry":{"type":"LineString","coordinates":[[121.2655449,29.381044],[121.2664354,29.3804737],[121.2665427,29.38024],[121.2665641,29.3798193],[121.2666285,29.3795202],[121.2674761,29.3779776],[121.267798,29.3774166],[121.2680876,29.3772109],[121.2683559,29.3769024],[121.2686563,29.3765845],[121.2699902,29.3756435],[121.2702334,29.375472],[121.2713017,29.374825],[121.2714994,29.3747053],[121.2719393,29.374537],[121.2723899,29.3744996],[121.2727225,29.3744996],[121.2730953,29.3743173],[121.2732817,29.3742143],[121.2737666,29.3739048]]}},{"type":"Feature","properties":{"osmId":363951369,"name":"大里-孔家（原Y439）","sourceUrl":"https://www.openstreetmap.org/way/363951369","highway":"tertiary","ref":"Y410","movement":"road"},"geometry":{"type":"LineString","coordinates":[[121.2889153,29.4318019],[121.2894431,29.4316414],[121.2900292,29.4314363],[121.2902746,29.4313845],[121.2905482,29.4313845],[121.2907306,29.4314733],[121.2910996,29.4317253],[121.2911823,29.4317818],[121.2918732,29.4322535],[121.2921575,29.4323329],[121.2926738,29.4324175],[121.2937507,29.4325198],[121.2952152,29.432688],[121.2956725,29.4327761],[121.2959234,29.432853],[121.2964933,29.4329998],[121.2968404,29.4330353],[121.297021,29.4330538],[121.2970713,29.4330664],[121.2971743,29.4330763],[121.2975112,29.4331085],[121.2982622,29.4330618],[121.2985358,29.4330244],[121.2989757,29.4328609],[121.2994156,29.4327347],[121.2998179,29.4327067],[121.3000755,29.4327091],[121.3003222,29.4327114],[121.3009015,29.4327254],[121.3011644,29.4326553],[121.301615,29.4325432],[121.3030312,29.432417],[121.304147,29.4323937],[121.3047491,29.4324876],[121.3050764,29.4325156],[121.3053754,29.4324684],[121.3069955,29.4321367],[121.3072047,29.4321133],[121.3074354,29.4321507],[121.3084653,29.4324077],[121.3091895,29.4325478],[121.3094009,29.432604],[121.3095223,29.4326611]]}},{"type":"Feature","properties":{"osmId":363951371,"name":null,"sourceUrl":"https://www.openstreetmap.org/way/363951371","highway":"residential","source":"maxar","movement":"road"},"geometry":{"type":"LineString","coordinates":[[121.293472,29.437794],[121.2934452,29.4371495],[121.293354,29.4368038],[121.2931931,29.4365049],[121.2931877,29.4364395],[121.293236,29.4363601],[121.2934934,29.43622],[121.2938582,29.4359491],[121.2945394,29.4355101],[121.2947379,29.4353046],[121.2949792,29.4349963],[121.2954137,29.4348655],[121.2955907,29.4348422],[121.2957838,29.4347347],[121.2961646,29.4346927],[121.2962236,29.4346693],[121.2963109,29.43466],[121.2963699,29.4345689],[121.2964906,29.4345012],[121.2966355,29.4344335],[121.2967201,29.4343114],[121.2967791,29.4341923],[121.2968622,29.4336667],[121.296901,29.433325]]}},{"type":"Feature","properties":{"osmId":363951372,"name":null,"sourceUrl":"https://www.openstreetmap.org/way/363951372","bridge":"yes","highway":"unclassified","layer":"1","movement":"road"},"geometry":{"type":"LineString","coordinates":[[121.2958592,29.4331013],[121.2959234,29.432853]]}},{"type":"Feature","properties":{"osmId":393242705,"name":"越溪-沙柳","sourceUrl":"https://www.openstreetmap.org/way/393242705","highway":"secondary","ref":"X405","source":"Bing","movement":"road"},"geometry":{"type":"LineString","coordinates":[[121.4929703,29.2158304],[121.4932401,29.2162786],[121.4932864,29.2164472],[121.4933077,29.2165712],[121.4933254,29.2169404],[121.4934386,29.2174137],[121.4934898,29.2175569],[121.493553,29.2177334],[121.4938066,29.218142],[121.4941563,29.2189757],[121.4942762,29.219421],[121.4943634,29.2196704],[121.4945283,29.2199926],[121.495158,29.2212632],[121.4954724,29.2218795],[121.4956607,29.2222559],[121.4957975,29.2224937],[121.495948,29.2226549],[121.4961271,29.2228315],[121.4966895,29.223298],[121.4970514,29.2236962],[121.4972073,29.2238298],[121.497466,29.2240303],[121.4975954,29.2241306],[121.4979431,29.2244001],[121.4987867,29.2250778],[121.4993531,29.2255247],[121.4995939,29.2257743],[121.4998632,29.2261403],[121.5002635,29.2266398],[121.5005749,29.2269874],[121.5006999,29.2271637],[121.5007177,29.2272697],[121.5007198,29.2273775],[121.5007071,29.2274369],[121.5006057,29.2278929],[121.500566,29.2281166],[121.500563,29.2282392],[121.500595,29.2283409],[121.5008938,29.2288832],[121.5010213,29.229123],[121.5010927,29.2292072],[121.5013443,29.2294382],[121.5021669,29.2301034],[121.5027862,29.2305952],[121.503588,29.2312966],[121.5041924,29.2319305],[121.504853,29.2327447],[121.5051751,29.2332403],[121.5052991,29.2334576],[121.5052963,29.2335301],[121.505271,29.2337137],[121.5052286,29.2338777],[121.5051694,29.2341065],[121.5050367,29.2345543],[121.5048823,29.2350116],[121.5048032,29.235144],[121.5046207,29.2354592],[121.5045604,29.2356537],[121.5045316,29.2359792],[121.5045413,29.23609],[121.5046175,29.2361762],[121.5047103,29.2362215],[121.5051136,29.2364552],[121.5051613,29.236497],[121.5052091,29.2365398],[121.5052946,29.2367659],[121.5052963,29.2368583],[121.5052783,29.2369454],[121.5052347,29.2370141],[121.5050664,29.2372067],[121.5050173,29.2372936],[121.5049383,29.2375176],[121.5048987,29.2377583],[121.5048893,29.2378155],[121.5048986,29.2379073],[121.5049372,29.2380278],[121.5050125,29.2381032],[121.5053836,29.2383317],[121.5054349,29.2383972],[121.5054654,29.2384571],[121.5054586,29.2385202],[121.5054411,29.2385942],[121.505272,29.2388201],[121.5051657,29.2389006],[121.5050683,29.2389383],[121.5049748,29.2389616],[121.5047321,29.2389978],[121.5046371,29.2390353],[121.5045888,29.2390926],[121.504532,29.2391589],[121.5045088,29.2392838],[121.5045201,29.2393348],[121.5045407,29.2394237],[121.5045985,29.2395205],[121.5046451,29.2396328],[121.5047061,29.239751],[121.504735,29.2398654],[121.5047378,29.2399491],[121.5047193,29.2400268],[121.5046653,29.2401084],[121.5045961,29.2401963],[121.5044107,29.2403767],[121.504143,29.2406213],[121.5040178,29.240702],[121.5039226,29.2407413],[121.5035397,29.2408079],[121.5034425,29.2408581],[121.5033922,29.2409174],[121.5033122,29.2410702],[121.5032326,29.241225],[121.5032222,29.2414196],[121.5032148,29.2416676],[121.5031673,29.2417935],[121.5030568,29.2419691],[121.5026578,29.2423698],[121.5026056,29.2424857],[121.5026076,29.2425643],[121.502651,29.242632],[121.5027165,29.2427092],[121.5030883,29.2431014],[121.5031487,29.2431652],[121.5032489,29.2432709],[121.5033232,29.2433494],[121.5035358,29.2436919],[121.5037207,29.244047],[121.5039211,29.2444539],[121.5041456,29.2449092],[121.504293,29.2451485],[121.5044043,29.2452997],[121.5045163,29.2454175],[121.504621,29.2455165],[121.5049246,29.2457192],[121.5051435,29.2458639],[121.50527,29.2459954],[121.5053858,29.2461469],[121.5054887,29.2463402],[121.5057014,29.2466327],[121.5058817,29.2468789],[121.5061717,29.2474314],[121.506277,29.2476319],[121.5067714,29.2485086],[121.5071161,29.2492237],[121.5073344,29.2496568],[121.5073519,29.2497482],[121.5073472,29.249852],[121.5073304,29.2499376],[121.5072207,29.25013],[121.5070487,29.2504313],[121.5069401,29.2507554],[121.5069007,29.2509751],[121.5069008,29.2511155],[121.5069126,29.2513187],[121.5069637,29.2514983],[121.5070484,29.2516374],[121.5071797,29.2518269],[121.5075035,29.2522472],[121.5076717,29.2524012],[121.5077665,29.2525436],[121.5078768,29.2527827],[121.507918,29.2529966],[121.507951,29.2532874],[121.5079539,29.2535158],[121.5079066,29.2537169],[121.5078701,29.2542676],[121.5078947,29.254341],[121.5079536,29.2543903],[121.5080536,29.2544293],[121.5081644,29.2544378],[121.5087963,29.2544253],[121.508882,29.254465],[121.508928,29.2545151],[121.5089464,29.2545773],[121.5089392,29.2546538],[121.5085239,29.255302],[121.5084076,29.2556079],[121.5084101,29.2557142],[121.5084656,29.255791],[121.5085796,29.2558581],[121.5087332,29.2559802],[121.5090086,29.2562353],[121.509139,29.2564172],[121.5092136,29.2565671],[121.5092969,29.2566251],[121.5094032,29.2566659],[121.5097875,29.2567319],[121.509905,29.2567969],[121.5099791,29.2569137],[121.510079,29.2570464],[121.5102537,29.2571691],[121.5107482,29.2579143],[121.5107847,29.2580433],[121.5108077,29.2581611],[121.5108306,29.2582787],[121.510855,29.2584036],[121.511131,29.2598194],[121.5112174,29.2600836],[121.5113847,29.2604595]]}},{"type":"Feature","properties":{"osmId":393242709,"name":null,"sourceUrl":"https://www.openstreetmap.org/way/393242709","highway":"tertiary","movement":"road"},"geometry":{"type":"LineString","coordinates":[[121.5088836,29.2332484],[121.5062999,29.23316],[121.5052991,29.2334576]]}},{"type":"Feature","properties":{"osmId":467810007,"name":null,"sourceUrl":"https://www.openstreetmap.org/way/467810007","highway":"track","movement":"road"},"geometry":{"type":"LineString","coordinates":[[121.2655449,29.381044],[121.265294,29.3811823],[121.2651599,29.3812664],[121.2650473,29.3813927],[121.2648112,29.3815282],[121.264366,29.3816684],[121.2637652,29.381832],[121.2637283,29.3818432],[121.2632717,29.3819816],[121.2630571,29.3821639],[121.2628801,29.382435],[121.2628391,29.3825238],[121.2626971,29.3825525],[121.262275,29.3824965],[121.2619014,29.3825312],[121.26167,29.3823734],[121.2611473,29.3822532]]}},{"type":"Feature","properties":{"osmId":467810791,"name":null,"sourceUrl":"https://www.openstreetmap.org/way/467810791","highway":"track","movement":"road"},"geometry":{"type":"LineString","coordinates":[[121.2732482,29.3843136],[121.2732187,29.384164],[121.2729934,29.3839724],[121.2729692,29.3836101],[121.2729129,29.38336],[121.2727144,29.3831333],[121.2727198,29.3830632],[121.2727815,29.3829908],[121.2730403,29.382872],[121.2730913,29.3827225],[121.2730993,29.3825519],[121.2731154,29.3822994],[121.27311,29.3821031],[121.2731933,29.3816497],[121.2731483,29.3813612],[121.273132,29.381151],[121.2730502,29.3809159],[121.2730298,29.3804059],[121.2730379,29.3802091],[121.2731896,29.3798788],[121.2732104,29.3796486],[121.2732104,29.3793336],[121.2731896,29.3791095],[121.2731826,29.379055],[121.27298,29.3786973],[121.2729424,29.3781363],[121.2726849,29.3775614],[121.2726688,29.3772715],[121.2727761,29.3770846],[121.2729692,29.3768321],[121.2729692,29.3767106],[121.2727654,29.3763834],[121.2727493,29.3762198]]}},{"type":"Feature","properties":{"osmId":496701780,"name":null,"sourceUrl":"https://www.openstreetmap.org/way/496701780","highway":"path","movement":"non-motor"},"geometry":{"type":"LineString","coordinates":[[121.5353235,29.3213991],[121.5355118,29.3215724],[121.5360102,29.3217592],[121.5365788,29.3221755],[121.5369602,29.3223815],[121.5369919,29.3225356],[121.5372011,29.3225824],[121.5374908,29.3225824],[121.5379306,29.3226058],[121.5383067,29.3226715],[121.5385803,29.3229053],[121.5388587,29.3232933],[121.5390142,29.3234523],[121.5390255,29.3235414],[121.5388801,29.3236909],[121.5388909,29.3238265],[121.5391596,29.3238688],[121.5392986,29.3239902],[121.5395024,29.324341],[121.539621,29.3246592],[121.539596,29.3249123],[121.5396335,29.3250293],[121.5395861,29.3251308]]}},{"type":"Feature","properties":{"osmId":496701795,"name":"瓦窑头-铜岭脚（原杨家-铜岭脚）","sourceUrl":"https://www.openstreetmap.org/way/496701795","highway":"tertiary","ref":"未定（原Y407B）","movement":"road"},"geometry":{"type":"LineString","coordinates":[[121.5212082,29.3224405],[121.5211472,29.3228048],[121.5212239,29.3237383],[121.5212992,29.3239809],[121.5213587,29.324173],[121.5214834,29.324575],[121.5215446,29.3246624],[121.5216372,29.3247014],[121.5218505,29.3247468],[121.5223328,29.3248564],[121.5224714,29.3248786],[121.5226728,29.3248367],[121.5230636,29.3247439],[121.5232649,29.3247262],[121.5234248,29.3247651],[121.5235474,29.3248051],[121.5238272,29.3249049],[121.5242364,29.3250512],[121.5244325,29.3251421],[121.5245247,29.3252036],[121.5246099,29.3252646],[121.525059,29.3257042],[121.5251139,29.3257819],[121.5251686,29.3259472],[121.5252892,29.3268984],[121.5253315,29.3272666],[121.5259294,29.3299419],[121.5260485,29.330317],[121.5261056,29.330444],[121.5261624,29.3305709],[121.5264902,29.331139],[121.5265269,29.3312999],[121.5265438,29.3315132],[121.5264503,29.3324314],[121.5264297,29.3333723],[121.52647,29.3336301],[121.5269018,29.3344745],[121.5271044,29.3348056],[121.5272641,29.3349944],[121.5274938,29.3351897],[121.5276391,29.335268],[121.5288158,29.3358931],[121.5289505,29.3359942],[121.5290866,29.3360962],[121.5291349,29.3361811],[121.5294192,29.3370689],[121.5296769,29.3380503],[121.5297038,29.3381526],[121.529742,29.3382981],[121.5297546,29.3383233]]}},{"type":"Feature","properties":{"osmId":529093807,"name":null,"sourceUrl":"https://www.openstreetmap.org/way/529093807","highway":"unclassified","movement":"road"},"geometry":{"type":"LineString","coordinates":[[121.5389724,29.3186804],[121.5398784,29.3192144],[121.5404578,29.319785],[121.5419276,29.3204305],[121.5424533,29.3205147],[121.5427108,29.3204866],[121.542853,29.3205619],[121.5427564,29.3207116],[121.5422817,29.3208982],[121.5419839,29.3213945],[121.5425713,29.321553],[121.5428396,29.3215904],[121.543376,29.3218617],[121.5436335,29.3222733],[121.5439688,29.3224983],[121.544127,29.322741],[121.5451033,29.3233865],[121.5456854,29.3236956],[121.5462191,29.324088],[121.547233,29.3240419]]}},{"type":"Feature","properties":{"osmId":529093814,"name":"竹家岙（-许家山）-亦长坪","sourceUrl":"https://www.openstreetmap.org/way/529093814","highway":"tertiary","ref":"Y408","movement":"road"},"geometry":{"type":"LineString","coordinates":[[121.5354839,29.3181076],[121.5355944,29.3180812],[121.5358765,29.3180545],[121.5372654,29.3180851],[121.5377094,29.3181556],[121.53826,29.3183621],[121.5386726,29.3185464],[121.5389724,29.3186804],[121.5391007,29.3188611],[121.5391875,29.3191312],[121.5393487,29.3198837],[121.5394723,29.3200994],[121.5396112,29.3202605],[121.5400313,29.3205806],[121.5403597,29.3208477],[121.5404793,29.3210319],[121.540562,29.321286],[121.5406229,29.3216627],[121.5406311,29.3218451],[121.5406338,29.3219065],[121.540608,29.3221891],[121.5405559,29.3223166],[121.540321,29.3228912],[121.5399276,29.3236262],[121.5399103,29.3237824],[121.5399183,29.3239109],[121.5400313,29.3243785],[121.5400696,29.3246422],[121.5401815,29.3247994],[121.5407045,29.3252105],[121.5407261,29.325343],[121.5407045,29.3254443],[121.5405455,29.3256606],[121.5403557,29.3260891],[121.5403261,29.3262904],[121.540334,29.326416],[121.5404426,29.3267498],[121.540486,29.3268719],[121.5406261,29.3269872],[121.5409773,29.3271644],[121.5412437,29.3272022],[121.5416463,29.3271971],[121.5416769,29.32719],[121.5421822,29.3270732],[121.5426764,29.32696],[121.5428601,29.3268824],[121.5433525,29.3265526],[121.5436574,29.3263925],[121.5438394,29.3263576],[121.5441558,29.3263374],[121.5443982,29.3263107],[121.5446466,29.3262084],[121.5448625,29.3260997],[121.5450819,29.3259869],[121.5462034,29.3249278],[121.5468307,29.3243025],[121.5470186,29.3241652],[121.547233,29.3240419],[121.5476788,29.3238012],[121.5477625,29.3237543],[121.5478627,29.3237587],[121.5478947,29.3238121],[121.5479253,29.32388],[121.5478819,29.323932],[121.5472196,29.3245094],[121.5466295,29.3252297],[121.5463291,29.3255945],[121.546356,29.3256824],[121.5464178,29.3257187],[121.5465196,29.325725],[121.5488946,29.3243527],[121.5492114,29.3241466],[121.5493183,29.3241164],[121.5494601,29.3241043],[121.5495446,29.3241245],[121.5496472,29.3241643],[121.5497479,29.3242321],[121.5506346,29.3247694],[121.5507033,29.3248401],[121.5507236,29.3248964],[121.5507285,29.3249579],[121.5507118,29.3250124],[121.5506883,29.325066],[121.5506463,29.325146],[121.5505884,29.3252179],[121.5503811,29.3254709],[121.5501992,29.3256874],[121.5499726,29.325932],[121.5498288,29.3260739],[121.549705,29.3261713],[121.5495352,29.3262948],[121.5493787,29.3263838],[121.5492098,29.3264848],[121.5491552,29.3265401],[121.5490983,29.3266423],[121.5490378,29.3268325],[121.5489873,29.3269898],[121.5489258,29.3271527],[121.5488289,29.327321],[121.5487085,29.3274434],[121.5478137,29.3282136],[121.5475656,29.3284216],[121.5475493,29.3285136],[121.5475786,29.3285869],[121.5476675,29.3286527],[121.5477963,29.3286714],[121.5484615,29.3286434],[121.5488484,29.3286963],[121.5491629,29.3288094],[121.5494186,29.3289621],[121.5495679,29.3291033],[121.5498613,29.3294241],[121.5502107,29.3300144],[121.5503369,29.3303256],[121.5504539,29.3304839]]}},{"type":"Feature","properties":{"osmId":529093815,"name":null,"sourceUrl":"https://www.openstreetmap.org/way/529093815","highway":"residential","movement":"road"},"geometry":{"type":"LineString","coordinates":[[121.53826,29.3183621],[121.5378949,29.3187682],[121.5378278,29.3188972],[121.5377706,29.3190486],[121.5373661,29.319859],[121.5373009,29.3199416],[121.5370839,29.3201326],[121.5369359,29.3201911],[121.5366655,29.3202272],[121.5365708,29.3202702],[121.5365175,29.3202857],[121.5364169,29.3203356],[121.5361978,29.3204974],[121.5361504,29.320518],[121.5359472,29.3205576],[121.5358406,29.3205576],[121.5357242,29.3205352],[121.5355959,29.3204492],[121.5354894,29.3204199],[121.5353868,29.3204234],[121.5352723,29.3204492],[121.5351026,29.3204595],[121.5349151,29.3204853],[121.5345066,29.3204561],[121.5344573,29.3204337],[121.5344672,29.3201016],[121.534552,29.3199777],[121.5345658,29.3198831],[121.5346921,29.3197885],[121.5348278,29.3197107],[121.5348453,29.3194606],[121.5349065,29.3192356]]}},{"type":"Feature","properties":{"osmId":545526755,"name":null,"sourceUrl":"https://www.openstreetmap.org/way/545526755","highway":"service","movement":"road"},"geometry":{"type":"LineString","coordinates":[[121.2731318,29.373666],[121.2728097,29.3731718]]}},{"type":"Feature","properties":{"osmId":545526757,"name":null,"sourceUrl":"https://www.openstreetmap.org/way/545526757","highway":"track","movement":"road"},"geometry":{"type":"LineString","coordinates":[[121.2742326,29.3688686],[121.2742567,29.3689434],[121.2742433,29.3690299],[121.274195,29.369086],[121.2741709,29.3691304],[121.2742218,29.3692309],[121.2741762,29.3694039],[121.2741172,29.3694693],[121.2740046,29.3695582],[121.2738946,29.3696096],[121.2737337,29.3696517],[121.2734413,29.3696727],[121.2733018,29.3696984],[121.2731516,29.3697942],[121.2730899,29.3698597],[121.2729531,29.3699345],[121.2728271,29.3700186],[121.2727654,29.3700911],[121.2727386,29.3701589],[121.2727305,29.370229],[121.2727359,29.3703599],[121.2727252,29.3704674],[121.2726769,29.3705469],[121.2726179,29.3705913],[121.2726179,29.3706591],[121.2726957,29.3707666],[121.2727252,29.3708601],[121.2727359,29.3709513],[121.2727842,29.3710424],[121.2728378,29.3711172],[121.2728915,29.371164],[121.2729666,29.3712131],[121.2730336,29.3712972],[121.2731275,29.3714445],[121.2731919,29.371566],[121.2731919,29.3716385],[121.2731704,29.3717484],[121.2731034,29.371954],[121.2729961,29.3721387],[121.2729558,29.3722392],[121.2729424,29.3723865],[121.2729478,29.3724975],[121.2729263,29.372674],[121.2728687,29.3727827],[121.2728418,29.3728528],[121.2728338,29.372903],[121.2728351,29.3729825],[121.2728982,29.3730667],[121.272929,29.3730982],[121.2731422,29.3732139],[121.2732227,29.3732665],[121.2732764,29.3733156]]}},{"type":"Feature","properties":{"osmId":545526758,"name":null,"sourceUrl":"https://www.openstreetmap.org/way/545526758","highway":"footway","movement":"non-motor"},"geometry":{"type":"LineString","coordinates":[[121.2727869,29.3731514],[121.2727889,29.3731391],[121.2727775,29.3731222],[121.2727976,29.373104],[121.2728526,29.3730795],[121.2728982,29.3730667]]}},{"type":"Feature","properties":{"osmId":545526759,"name":null,"sourceUrl":"https://www.openstreetmap.org/way/545526759","highway":"path","movement":"non-motor"},"geometry":{"type":"LineString","coordinates":[[121.2684444,29.3614982],[121.268608,29.3614398],[121.2687045,29.3613884],[121.2688091,29.3613486],[121.2688896,29.3613416],[121.2689808,29.3613673],[121.2690398,29.3613977],[121.2690935,29.3614515],[121.2691364,29.3616221],[121.2692437,29.3617413],[121.2693188,29.3617554],[121.2693644,29.361739],[121.2696058,29.3618185],[121.269654,29.3618699],[121.2696701,29.3619471],[121.2697104,29.3619891],[121.2697265,29.3620452],[121.2697667,29.3620803],[121.2698284,29.3620709],[121.2699115,29.3620943],[121.2701422,29.3622299],[121.2702227,29.3623328],[121.2702495,29.3623889],[121.2703031,29.3624239],[121.2703487,29.3624193],[121.2704319,29.362445],[121.2704667,29.3624707],[121.2704962,29.3625174],[121.2705311,29.3625338],[121.2706009,29.3625338],[121.2707296,29.3625221],[121.2707698,29.3625128],[121.2708396,29.3625385],[121.2709978,29.3626437],[121.2712419,29.3627909],[121.2714699,29.3628728],[121.2717167,29.3629709],[121.2717703,29.3630434],[121.2718293,29.3631089],[121.2718883,29.3631205],[121.2719232,29.3631065],[121.2719956,29.3630948],[121.272119,29.3631018],[121.272414,29.3632164],[121.2725133,29.3632818],[121.2725535,29.3633309],[121.2726688,29.3635086],[121.272701,29.3635811],[121.2727547,29.3636138],[121.2728298,29.3636255],[121.2729076,29.3636231],[121.2729531,29.3636372],[121.2730685,29.3636348],[121.2731463,29.3636044],[121.2732646,29.3635972],[121.2734145,29.3635881],[121.2735084,29.3636138],[121.2736639,29.3637447],[121.2737685,29.3638008],[121.2738329,29.3638709],[121.2738571,29.3639668],[121.2738463,29.3640229],[121.2738222,29.3640673],[121.273798,29.3641514],[121.27379,29.3642122],[121.273841,29.3642496],[121.2739187,29.364273],[121.2740877,29.364446],[121.2741145,29.364481],[121.2741119,29.3645418],[121.2740824,29.3645932],[121.2740663,29.3646423],[121.2740824,29.3647031],[121.2740877,29.3647569],[121.2740824,29.3648083],[121.2741226,29.3648644],[121.2741816,29.3649135],[121.2742433,29.3649532],[121.2742808,29.364993],[121.2742996,29.3650467],[121.2742862,29.3651122],[121.2742808,29.36518],[121.2743318,29.3653085],[121.2744096,29.3653553],[121.2744954,29.3653904],[121.2745893,29.3654161],[121.2747341,29.3654815],[121.2748334,29.3655563],[121.2748709,29.3655961],[121.2748736,29.3656498],[121.2748441,29.3656966],[121.2747154,29.3658158],[121.2745973,29.365949],[121.2745357,29.3659958],[121.2744471,29.3660285],[121.2743694,29.3660799],[121.2742567,29.3661688],[121.2741816,29.3662997],[121.2741521,29.3663745],[121.2741736,29.366461],[121.2742057,29.3665498],[121.2742084,29.3666199],[121.2743452,29.366849],[121.2743694,29.3669168],[121.2743425,29.3669682],[121.2742728,29.3670383],[121.274085,29.3671365],[121.2740582,29.3671716],[121.2740582,29.3672557],[121.2740743,29.3673352],[121.2740609,29.3675456],[121.2740394,29.367618],[121.2740582,29.3677022],[121.2740824,29.3677536],[121.2740529,29.3678378],[121.2740019,29.3678939],[121.2739617,29.3679266],[121.2739107,29.3679266],[121.2738436,29.3679032],[121.2737578,29.3678939],[121.2737149,29.3679126],[121.2736478,29.3679172],[121.2735808,29.3679102],[121.2733904,29.3680224],[121.2733045,29.3680458],[121.2732214,29.3680762],[121.2731811,29.3681253],[121.2731731,29.3682176],[121.2732053,29.3683146],[121.273216,29.3683731],[121.2732616,29.3684221],[121.2733568,29.3684993],[121.2733796,29.3685659],[121.2734561,29.3686559],[121.2734748,29.3687576],[121.273503,29.3687821],[121.2735379,29.3687868],[121.2735593,29.3688078],[121.273558,29.36883],[121.2735687,29.3688721],[121.2735553,29.36892],[121.2735701,29.3689995],[121.2735607,29.3690275],[121.2735137,29.3690451],[121.2734748,29.3690462],[121.2733474,29.3690778],[121.2733166,29.3691105],[121.2732683,29.3691257],[121.273212,29.3691339],[121.273161,29.3691958],[121.2731168,29.3692145],[121.2730645,29.3692274],[121.2729518,29.3692379],[121.2728821,29.3692613],[121.2728298,29.369287],[121.2727413,29.3693092],[121.272575,29.3693723],[121.2724744,29.3694179],[121.2723912,29.3694997],[121.272292,29.3695476],[121.2722343,29.3695558],[121.2721927,29.3695722],[121.2721364,29.3696002],[121.2720439,29.3696657],[121.2719768,29.3696844],[121.2718695,29.3696914],[121.2718548,29.3697113],[121.2718467,29.3697627],[121.2718588,29.3697966],[121.2719889,29.3698959],[121.2720466,29.3699544],[121.2721404,29.3700701],[121.2721632,29.3701273],[121.2721726,29.3702173],[121.2721887,29.3702699],[121.2722008,29.3703517],[121.272174,29.3704242],[121.272174,29.3704581],[121.2722182,29.3705352],[121.2722182,29.370575],[121.2721713,29.3706743],[121.272178,29.370714],[121.2722062,29.370762],[121.2722544,29.3707958],[121.2723805,29.3708519],[121.272465,29.3709045],[121.2725066,29.3709431],[121.2725656,29.3710401],[121.272701,29.3711874],[121.2727104,29.3712259],[121.2726554,29.3713615],[121.2726608,29.3714083],[121.2726916,29.3714608],[121.2727533,29.371663],[121.2728003,29.3717764],[121.2728056,29.371822],[121.2727493,29.3719353],[121.2726621,29.372044],[121.2726447,29.3720838],[121.2726487,29.3721258],[121.2726729,29.3721971],[121.2727332,29.3723023],[121.2727882,29.3723713],[121.2728097,29.3724227],[121.2728365,29.3725384],[121.2728392,29.3726003],[121.2728338,29.3726541],[121.2728056,29.3726833],[121.2726527,29.3727862],[121.2726434,29.3728037],[121.2726434,29.3728434],[121.2726326,29.3728762],[121.2726286,29.3729241],[121.2726541,29.3729977],[121.2726675,29.3730842],[121.2726849,29.3731099],[121.2727869,29.3731514],[121.2728097,29.3731718]]}},{"type":"Feature","properties":{"osmId":928370841,"name":null,"sourceUrl":"https://www.openstreetmap.org/way/928370841","highway":"residential","movement":"road"},"geometry":{"type":"LineString","coordinates":[[121.269601,29.374185],[121.2696141,29.374725],[121.2697929,29.3752513],[121.2699902,29.3756435],[121.2700751,29.3757289],[121.2702575,29.3761707],[121.2703702,29.3762618],[121.2711078,29.376145],[121.2717515,29.3761333],[121.2721136,29.3761052],[121.2723523,29.376159],[121.2727493,29.3762198],[121.2730685,29.376187],[121.2740958,29.3758107],[121.2744901,29.3755279],[121.2747636,29.3753573],[121.2752143,29.3749249],[121.275394,29.3748057],[121.2755039,29.3745369],[121.2755334,29.3743616],[121.275496,29.3742931]]}},{"type":"Feature","properties":{"osmId":930103254,"name":null,"sourceUrl":"https://www.openstreetmap.org/way/930103254","highway":"footway","movement":"non-motor"},"geometry":{"type":"LineString","coordinates":[[121.5395861,29.3251308],[121.5396204,29.3254681],[121.5397706,29.3257487],[121.5396741,29.3258797],[121.5396151,29.3260808],[121.5395351,29.326226],[121.5396151,29.3264222],[121.539672,29.3266283],[121.5396881,29.3268388],[121.5397814,29.327105],[121.5399584,29.3272173],[121.5399106,29.3274514],[121.540409,29.3274932]]}},{"type":"Feature","properties":{"osmId":930103255,"name":null,"sourceUrl":"https://www.openstreetmap.org/way/930103255","highway":"unclassified","movement":"road"},"geometry":{"type":"LineString","coordinates":[[121.5405061,29.3279237],[121.5404011,29.3281244],[121.5391816,29.3288573],[121.5386487,29.3293975],[121.538262,29.3296005],[121.538187,29.3296762],[121.5381633,29.329776],[121.537887,29.3302233],[121.5376897,29.3303954],[121.5373424,29.3306466],[121.5368885,29.3306706],[121.5368175,29.3305915],[121.5364859,29.3296005],[121.536482,29.3295042],[121.5365451,29.3293115],[121.5368411,29.3287575],[121.5370108,29.328644],[121.5372319,29.3286199],[121.5374253,29.3285476],[121.5375081,29.3284891],[121.5376265,29.3283137],[121.5378712,29.3277631],[121.5380251,29.3274959],[121.5381029,29.3272644],[121.538111,29.3270633],[121.5380198,29.3267757],[121.5379474,29.3265956],[121.5379634,29.3264086],[121.5380064,29.3257772],[121.538052,29.3256906],[121.5381217,29.3256602],[121.538398,29.3256205],[121.5385348,29.3256322]]}},{"type":"Feature","properties":{"osmId":930103256,"name":null,"sourceUrl":"https://www.openstreetmap.org/way/930103256","highway":"residential","movement":"road"},"geometry":{"type":"LineString","coordinates":[[121.540409,29.3274932],[121.5404327,29.3272883],[121.5406261,29.3269872]]}},{"type":"Feature","properties":{"osmId":930103257,"name":null,"sourceUrl":"https://www.openstreetmap.org/way/930103257","highway":"path","movement":"non-motor"},"geometry":{"type":"LineString","coordinates":[[121.5405061,29.3279237],[121.5406075,29.3279212],[121.5406885,29.3278771],[121.5407905,29.3280431],[121.5409267,29.3281737],[121.5411364,29.3284664],[121.5415817,29.3286885],[121.5420001,29.328899],[121.5422791,29.3289551],[121.542536,29.3289758],[121.542815,29.3290366],[121.5429952,29.3292006],[121.5431931,29.3292447],[121.5432875,29.3293199],[121.5434212,29.3293694],[121.5436276,29.3294458],[121.5437564,29.3294435],[121.5438503,29.3294622],[121.5439683,29.3294809],[121.5440917,29.3295885],[121.544258,29.3296329],[121.5445535,29.3301103],[121.5448346,29.3304794],[121.5450895,29.3307974],[121.5451973,29.3309801],[121.5453174,29.331223],[121.545361,29.3313894],[121.5453528,29.3315764],[121.5457097,29.3318266],[121.5460926,29.3320344],[121.5461065,29.3321166],[121.546098,29.3321817]]}},{"type":"Feature","properties":{"osmId":930103258,"name":null,"sourceUrl":"https://www.openstreetmap.org/way/930103258","highway":"residential","movement":"road"},"geometry":{"type":"LineString","coordinates":[[121.540409,29.3274932],[121.5404417,29.3276899],[121.5405061,29.3279237]]}},{"type":"Feature","properties":{"osmId":930103259,"name":null,"sourceUrl":"https://www.openstreetmap.org/way/930103259","highway":"residential","movement":"road"},"geometry":{"type":"LineString","coordinates":[[121.5400696,29.3246422],[121.539817,29.3249002],[121.5396942,29.3250228],[121.5395861,29.3251308],[121.5392232,29.3253039],[121.5385348,29.3256322]]}},{"type":"Feature","properties":{"osmId":930103260,"name":null,"sourceUrl":"https://www.openstreetmap.org/way/930103260","highway":"footway","movement":"non-motor"},"geometry":{"type":"LineString","coordinates":[[121.5343964,29.3208369],[121.5343941,29.3211529],[121.5346349,29.3212579],[121.5347336,29.3214368],[121.5348401,29.321466]]}},{"type":"Feature","properties":{"osmId":930103261,"name":null,"sourceUrl":"https://www.openstreetmap.org/way/930103261","highway":"track","movement":"road"},"geometry":{"type":"LineString","coordinates":[[121.5369359,29.3201911],[121.5366793,29.3202651],[121.5365964,29.3203305],[121.5366043,29.3205369],[121.5367661,29.3206711],[121.5368688,29.3206987],[121.5370621,29.3207847],[121.537145,29.3208466],[121.5371963,29.3209327],[121.5372911,29.3212045],[121.5372911,29.3213938],[121.5372634,29.3214867],[121.5371135,29.3216243],[121.5370108,29.3216587],[121.5368964,29.321676],[121.5365412,29.3216863],[121.5361426,29.3216622],[121.5360281,29.3216519],[121.5359255,29.3216312],[121.5358268,29.3215762],[121.5353235,29.3213991],[121.5348401,29.321466]]}},{"type":"Feature","properties":{"osmId":930103262,"name":null,"sourceUrl":"https://www.openstreetmap.org/way/930103262","highway":"footway","movement":"non-motor"},"geometry":{"type":"LineString","coordinates":[[121.533387,29.3193364],[121.533248,29.3195612],[121.5331407,29.3198979],[121.5332695,29.3202908],[121.5333977,29.3205899],[121.5336742,29.3206793],[121.533982,29.3207696],[121.5341028,29.320805],[121.5343964,29.3208369],[121.5345891,29.3208708],[121.5348305,29.3209316],[121.5351036,29.3210483],[121.5353235,29.3213991]]}},{"type":"Feature","properties":{"osmId":930103263,"name":null,"sourceUrl":"https://www.openstreetmap.org/way/930103263","highway":"path","movement":"non-motor"},"geometry":{"type":"LineString","coordinates":[[121.5330483,29.3183428],[121.5330779,29.3184292],[121.5332141,29.3185582],[121.5333029,29.3187148],[121.5333561,29.3188525],[121.5333821,29.3190841],[121.533387,29.3193364]]}},{"type":"Feature","properties":{"osmId":930103266,"name":null,"sourceUrl":"https://www.openstreetmap.org/way/930103266","highway":"path","movement":"non-motor"},"geometry":{"type":"LineString","coordinates":[[121.5198294,29.3186245],[121.5198794,29.31856],[121.5202173,29.3187237],[121.5203842,29.3187988],[121.5205129,29.3187941],[121.5207543,29.3185883],[121.5208079,29.3183918],[121.5209683,29.3182373],[121.5211405,29.318172],[121.52128,29.3180317],[121.5213712,29.3179896],[121.5214726,29.3178584],[121.5214619,29.3177555],[121.5215482,29.3175686],[121.5216502,29.3175032],[121.5220251,29.3176011],[121.522111,29.317531],[121.5221485,29.3172831],[121.5222349,29.3170354],[121.5224543,29.3170071],[121.5229693,29.3170679],[121.5230878,29.3171991],[121.523436,29.3173111],[121.5237745,29.317288],[121.5240422,29.3172644],[121.5243318,29.3172971],[121.5246752,29.3173766],[121.524783,29.317578],[121.5249487,29.3176994],[121.5253457,29.3178069],[121.5256461,29.3180315],[121.5257534,29.3181952],[121.5261826,29.3185366],[121.5264191,29.318911],[121.526623,29.3191215],[121.5267464,29.3191449],[121.5269926,29.319458],[121.5272608,29.3195563],[121.5278455,29.3196872],[121.5280816,29.3196966],[121.5285054,29.319603],[121.5292295,29.3195048],[121.5296265,29.3194721],[121.5301415,29.3193224],[121.5306892,29.3192712],[121.5309252,29.3191496],[121.5313061,29.3189905],[121.53196,29.3186956],[121.532851,29.3184464],[121.5330483,29.3183428]]}},{"type":"Feature","properties":{"osmId":930103269,"name":null,"sourceUrl":"https://www.openstreetmap.org/way/930103269","highway":"path","movement":"non-motor"},"geometry":{"type":"LineString","coordinates":[[121.5305184,29.3251927],[121.5304395,29.3252237],[121.5302066,29.3252237],[121.5298554,29.3252891],[121.5297646,29.325351],[121.5296462,29.3255127],[121.5295594,29.3255712],[121.5294725,29.3256228],[121.5292594,29.325671],[121.529212,29.3257708],[121.5290976,29.3262525]]}},{"type":"Feature","properties":{"osmId":930103270,"name":null,"sourceUrl":"https://www.openstreetmap.org/way/930103270","highway":"track","movement":"road"},"geometry":{"type":"LineString","coordinates":[[121.5306892,29.3192712],[121.5307,29.3194564],[121.5308499,29.3197111],[121.5316156,29.320389],[121.5318485,29.3207296],[121.5320063,29.3213628],[121.5320774,29.321934],[121.5322945,29.3225913],[121.5323102,29.3227943],[121.5322826,29.3228941],[121.5319156,29.3232864],[121.5313907,29.3235858],[121.5312249,29.3237165],[121.5310907,29.3238679],[121.5309289,29.3245768],[121.5307868,29.3247213],[121.529587,29.3250379],[121.5294015,29.3251411],[121.529366,29.3252409],[121.5296975,29.3252615],[121.5299264,29.3251962],[121.5305184,29.3251927]]}},{"type":"Feature","properties":{"osmId":930103271,"name":null,"sourceUrl":"https://www.openstreetmap.org/way/930103271","highway":"path","movement":"non-motor"},"geometry":{"type":"LineString","coordinates":[[121.5305184,29.3251927],[121.5307355,29.3252787],[121.5308776,29.3254129],[121.5309762,29.3254611],[121.5311933,29.3254542],[121.5315209,29.3255196],[121.5316275,29.3255196],[121.5318287,29.3254508],[121.5326655,29.3253338],[121.5328825,29.3253338],[121.5330878,29.325382],[121.5333482,29.3255575],[121.5335535,29.3256366],[121.5337706,29.3256228],[121.5339679,29.3255265],[121.5343744,29.3250551],[121.5344376,29.3249484],[121.5345204,29.3247695],[121.5345757,29.3244426],[121.5345757,29.3243428],[121.5344415,29.323689],[121.5342678,29.3233414],[121.5342915,29.3228631],[121.5342797,29.3227599],[121.5341771,29.3224812],[121.5341771,29.3221921],[121.53411,29.3220063],[121.5341258,29.3217241],[121.5343473,29.3217804],[121.5345617,29.3218188],[121.5346851,29.3217779],[121.5347439,29.3215756],[121.5347336,29.3214368]]}},{"type":"Feature","properties":{"osmId":930257853,"name":null,"sourceUrl":"https://www.openstreetmap.org/way/930257853","highway":"footway","movement":"non-motor"},"geometry":{"type":"LineString","coordinates":[[121.5338421,29.320062],[121.5341604,29.3200376],[121.5342448,29.3199813],[121.5342762,29.3198645],[121.5345658,29.3198831]]}},{"type":"Feature","properties":{"osmId":930257868,"name":null,"sourceUrl":"https://www.openstreetmap.org/way/930257868","highway":"footway","movement":"non-motor"},"geometry":{"type":"LineString","coordinates":[[121.533387,29.3193364],[121.5335616,29.319441],[121.5338421,29.320062],[121.5338172,29.3203066],[121.5336953,29.320587],[121.5336742,29.3206793],[121.533569,29.3209225],[121.5338935,29.3211338],[121.5341028,29.320805]]}},{"type":"Feature","properties":{"osmId":930603872,"name":null,"sourceUrl":"https://www.openstreetmap.org/way/930603872","highway":"path","movement":"non-motor"},"geometry":{"type":"LineString","coordinates":[[121.5386812,29.3262347],[121.5390739,29.3261654],[121.5393314,29.3263594],[121.539554,29.3265231],[121.539672,29.3266283]]}},{"type":"Feature","properties":{"osmId":930603873,"name":null,"sourceUrl":"https://www.openstreetmap.org/way/930603873","highway":"residential","movement":"road"},"geometry":{"type":"LineString","coordinates":[[121.5385348,29.3256322],[121.538626,29.326163],[121.5386812,29.3262347],[121.5387467,29.3263197],[121.538803,29.3264647],[121.538752,29.3265348],[121.5387145,29.3266728]]}},{"type":"Feature","properties":{"osmId":930603874,"name":null,"sourceUrl":"https://www.openstreetmap.org/way/930603874","highway":"footway","movement":"non-motor"},"geometry":{"type":"LineString","coordinates":[[121.5344573,29.3204337],[121.5344135,29.3205178],[121.5343277,29.3205891],[121.5340286,29.3207037],[121.533982,29.3207696]]}},{"type":"Feature","properties":{"osmId":936300877,"name":null,"sourceUrl":"https://www.openstreetmap.org/way/936300877","highway":"service","movement":"road"},"geometry":{"type":"LineString","coordinates":[[121.2733506,29.3736356],[121.2733823,29.3735096],[121.2733635,29.3734219],[121.2732764,29.3733156]]}},{"type":"Feature","properties":{"osmId":936300882,"name":null,"sourceUrl":"https://www.openstreetmap.org/way/936300882","highway":"path","movement":"non-motor"},"geometry":{"type":"LineString","coordinates":[[121.2742326,29.3688686],[121.2741789,29.3686933],[121.2742165,29.3686419],[121.2742969,29.3686185],[121.2743747,29.3686232],[121.2744445,29.3686559],[121.2745169,29.3686606],[121.2745759,29.3686185],[121.2746724,29.3685227],[121.2747958,29.3682141],[121.2748978,29.3681089],[121.2751257,29.3679289],[121.2752652,29.3678354],[121.275402,29.3677723],[121.2757695,29.3677115],[121.2758902,29.3676297],[121.2761825,29.3673165],[121.276601,29.3666176],[121.2767029,29.3665124],[121.2771589,29.3662366],[121.2775612,29.3661851],[121.2777892,29.3661945],[121.2779152,29.366136],[121.2779662,29.3660893],[121.2779796,29.3660262],[121.2778723,29.3656498],[121.2777919,29.365589],[121.2777803,29.3655261],[121.2777667,29.3654525],[121.2775612,29.365173],[121.2775558,29.3650421],[121.2775075,29.3647943],[121.2775236,29.3645371],[121.2775987,29.3644343],[121.2777758,29.3642473],[121.2778401,29.3641397],[121.2779313,29.3640462],[121.278044,29.3639668],[121.2782264,29.3637657],[121.2783122,29.3634525],[121.2783766,29.363345],[121.2784624,29.3632468],[121.2785804,29.3631626],[121.2786716,29.3630691],[121.2788325,29.3627185],[121.2787896,29.3621995],[121.278559,29.3618816],[121.2785375,29.3616899],[121.2785053,29.3615684],[121.2782371,29.3612691],[121.2782103,29.3611335],[121.2781727,29.3603948],[121.2780815,29.3600161],[121.2777221,29.3596],[121.277647,29.3593101],[121.2776577,29.3591068],[121.2777168,29.3589174],[121.2778106,29.3587374],[121.2779018,29.3586462],[121.2780601,29.358499],[121.2783819,29.3583073],[121.2786689,29.3580992],[121.278787,29.3580314],[121.2789801,29.3577602],[121.2791142,29.3574423],[121.2791222,29.357295],[121.279074,29.3569093],[121.2790686,29.3566428],[121.2791276,29.3562243],[121.2792188,29.3560957],[121.279428,29.3556492],[121.2794816,29.3555955],[121.2795943,29.3554154],[121.2797633,29.3552004],[121.279884,29.3549526],[121.2799323,29.3547632],[121.2799644,29.3547047],[121.2800986,29.3545364],[121.280179,29.3543564],[121.2802514,29.3543564],[121.2803158,29.3543284],[121.2804151,29.3542395],[121.2804902,29.3541156],[121.2807155,29.353952],[121.2807879,29.3539543],[121.2809703,29.3540852],[121.2811688,29.3541624],[121.2813109,29.3541717],[121.2814209,29.3540922],[121.2814906,29.3540922],[121.2816247,29.3541577],[121.2817481,29.3542442],[121.2818339,29.3543494],[121.2818956,29.3543915],[121.2820914,29.3544733],[121.2822282,29.3545084],[121.282306,29.354513],[121.2823892,29.3544125],[121.2824562,29.3543845],[121.2825313,29.3543845],[121.2827808,29.3545201],[121.2830356,29.3545224],[121.2832636,29.3545925],[121.2836337,29.3546042],[121.2837812,29.3546346],[121.2838617,29.3546323],[121.2839287,29.3546089],[121.2841085,29.3545107],[121.2842587,29.3545014],[121.2843364,29.3545177],[121.2844706,29.3545738],[121.2846851,29.3546229],[121.2848353,29.3546323],[121.2850124,29.354513],[121.285117,29.3544078],[121.2851492,29.3543494],[121.2852833,29.3541951],[121.2854603,29.3540922],[121.2857151,29.3538561],[121.2859753,29.3534891],[121.286045,29.3533137],[121.2861308,29.3532062],[121.2861416,29.3529981],[121.2862113,29.3528789],[121.2863186,29.3525984],[121.2863427,29.3524721],[121.286383,29.3523926],[121.2865519,29.3521846],[121.2866056,29.3521471],[121.2867531,29.3521074],[121.286855,29.3520092],[121.2869436,29.35189],[121.2869677,29.3516188],[121.2869596,29.3514785],[121.287024,29.3513452],[121.2871689,29.3511839],[121.2872735,29.3510179],[121.287303,29.3506836],[121.2872627,29.350555],[121.2872279,29.3504966],[121.287075,29.3503516],[121.2870026,29.3503189],[121.2867236,29.3502511],[121.28667,29.3502067],[121.2865895,29.3501903],[121.2865305,29.3502254],[121.2864554,29.3502347],[121.2862918,29.350209],[121.2861362,29.3501623],[121.2857446,29.3501225],[121.2856132,29.35005],[121.2854657,29.3500197],[121.2852833,29.3498817],[121.2850606,29.3498279],[121.284956,29.3497251],[121.2848756,29.3496129],[121.2848219,29.3495661],[121.2847522,29.3495357],[121.2845537,29.3493417],[121.2845537,29.3492715],[121.2846395,29.3491546],[121.28472,29.3489536],[121.2848997,29.3488483],[121.2850016,29.3487525],[121.2850714,29.3487127],[121.2852189,29.3486707],[121.2853637,29.3486683],[121.2855944,29.3486309],[121.2857768,29.348521],[121.2859967,29.3482872],[121.2860987,29.3481025],[121.2863025,29.3478968],[121.2863803,29.3477846],[121.2863964,29.3477238],[121.2863535,29.3472936],[121.286273,29.3471814],[121.2862489,29.3468003],[121.2861791,29.3466764],[121.2859645,29.346487],[121.285927,29.3464262],[121.2859136,29.346169],[121.2859505,29.3460529],[121.2860289,29.3458066],[121.2860665,29.3456126],[121.2861228,29.3454887],[121.2861684,29.3454419],[121.2863106,29.3454255],[121.286619,29.3454746],[121.2867585,29.3455214],[121.2869784,29.3455658],[121.287201,29.3455775],[121.28759,29.3453156],[121.2877375,29.3453063],[121.2878689,29.3452361],[121.2880889,29.3451847],[121.2881371,29.3451379],[121.2881908,29.3450094],[121.2881827,29.3442401],[121.2882417,29.3441209],[121.2884027,29.3438777],[121.2886655,29.3437094],[121.2889901,29.3435551],[121.2893093,29.3435504],[121.2894326,29.343492],[121.2896928,29.3434545],[121.2898377,29.3434031],[121.2902883,29.3430945],[121.2905028,29.3429074],[121.290586,29.3427274],[121.2906343,29.3424001],[121.290814,29.3421055],[121.290991,29.3416191],[121.2910581,29.3411562],[121.2911761,29.3409902],[121.291286,29.3409037],[121.2914309,29.340761],[121.2915006,29.340581],[121.291616,29.3403893],[121.2916723,29.340256],[121.2917018,29.3401274],[121.2916911,29.3400666],[121.2916267,29.3399521],[121.2915865,29.339758],[121.2916186,29.3394821],[121.2916669,29.339433],[121.291734,29.3393231],[121.2918305,29.3392202],[121.2919539,29.3391477],[121.2921524,29.3390823],[121.2922087,29.3390425],[121.2922785,29.3390261],[121.2924233,29.3390308],[121.2925521,29.3390916],[121.2926057,29.3391384],[121.2927076,29.3393231],[121.2927881,29.3394283],[121.2928551,29.339447],[121.2930483,29.3395359],[121.2931368,29.3396411],[121.2933031,29.3397884],[121.2933755,29.3399029],[121.2933889,29.3401017],[121.2934828,29.3402817],[121.2935981,29.3403753],[121.2938422,29.3405226],[121.2939119,29.3405249],[121.2939656,29.3404851],[121.2940058,29.340429],[121.2940139,29.3403519],[121.2939602,29.3401017],[121.2938717,29.3399263],[121.2938315,29.3397463],[121.2938637,29.3395405]]}},{"type":"Feature","properties":{"osmId":971708190,"name":"镇南路","sourceUrl":"https://www.openstreetmap.org/way/971708190","highway":"tertiary","ref":"Y419","movement":"road"},"geometry":{"type":"LineString","coordinates":[[121.4741951,29.1999841],[121.4746928,29.1994539],[121.4753473,29.1989107],[121.4763129,29.1982785],[121.4769351,29.1975339],[121.4785498,29.196794],[121.4798588,29.1947429],[121.4808036,29.1934726],[121.480917,29.1933201],[121.4810604,29.1931273],[121.4815915,29.1924716],[121.4821386,29.1921626],[121.482541,29.191919],[121.482954,29.1913852],[121.4829647,29.1911978],[121.4825302,29.1901769],[121.4822674,29.1895634],[121.4822674,29.1894346],[121.4822674,29.189348],[121.4823586,29.1890857],[121.4833349,29.1878119],[121.4833456,29.187648],[121.4833403,29.1874325],[121.4829272,29.1864912],[121.482836,29.1859667],[121.4828247,29.1857672],[121.4827985,29.1853063],[121.4830077,29.1838544],[121.4833564,29.183461],[121.4840215,29.1827445],[121.4845419,29.1818078],[121.4854753,29.1804636],[121.4855397,29.1802107],[121.4854485,29.1799952],[121.4845902,29.1775831],[121.4845902,29.1773302],[121.4847672,29.1768431],[121.4859635,29.1744965],[121.4859581,29.1743044],[121.4854056,29.1723512]]}},{"type":"Feature","properties":{"osmId":1136104966,"name":null,"sourceUrl":"https://www.openstreetmap.org/way/1136104966","highway":"track","movement":"road"},"geometry":{"type":"LineString","coordinates":[[121.2849971,29.3818099],[121.2847266,29.3818136],[121.2843063,29.3818001],[121.2841974,29.3817322],[121.2841164,29.3816319],[121.2839701,29.3814284],[121.2838954,29.381385],[121.2837771,29.3813687],[121.2836774,29.3813389],[121.2834782,29.3811625],[121.2833198,29.3810071],[121.2831814,29.3809227],[121.2828544,29.3809053],[121.2827609,29.3808675],[121.2827125,29.3806451],[121.282514,29.3803528],[121.2822404,29.3802874],[121.2821353,29.3801072],[121.2818817,29.3799472],[121.2817032,29.3797132],[121.281518,29.3795983],[121.2813461,29.3792131],[121.2811075,29.3790546],[121.2807088,29.3789499],[121.2804435,29.3789136],[121.2800882,29.378931],[121.2796043,29.3790197]]}},{"type":"Feature","properties":{"osmId":1136104967,"name":null,"sourceUrl":"https://www.openstreetmap.org/way/1136104967","highway":"track","movement":"road"},"geometry":{"type":"LineString","coordinates":[[121.2804435,29.3789136],[121.2803951,29.3788278],[121.2800982,29.3786417],[121.2797745,29.3786504],[121.2796477,29.3785457],[121.2795676,29.3783437],[121.2794125,29.378143],[121.2791522,29.3779395],[121.2790688,29.3778101],[121.279012,29.3776138],[121.2789403,29.3775513],[121.2786834,29.3775688],[121.2785616,29.3775077],[121.2785332,29.3772795],[121.2784815,29.3771457],[121.2783313,29.3771341],[121.2781795,29.3771675],[121.277971,29.3772024],[121.2778825,29.3772736],[121.2778392,29.3772736],[121.2777991,29.377262],[121.2777524,29.3772038],[121.2776773,29.3770337],[121.2774755,29.3769916]]}},{"type":"Feature","properties":{"osmId":1159338564,"name":"大里-孔家（原Y439）","sourceUrl":"https://www.openstreetmap.org/way/1159338564","highway":"tertiary","ref":"Y410","movement":"road"},"geometry":{"type":"LineString","coordinates":[[121.2705241,29.4213959],[121.2706006,29.4213381],[121.2706422,29.4213067],[121.2709254,29.4212081],[121.2713009,29.4212268],[121.2715756,29.4212366],[121.272053,29.4213628],[121.2721807,29.4213903],[121.2726914,29.4213394],[121.2729907,29.4212735],[121.2737374,29.4212226],[121.2739574,29.4211899],[121.2744284,29.4209885],[121.2746376,29.4209044],[121.27482,29.4209324],[121.2752234,29.4210918],[121.2757008,29.4213207],[121.2765044,29.4218249],[121.2770634,29.4222038],[121.2774861,29.4224604],[121.277808,29.4225632],[121.2781886,29.4228015],[121.2785064,29.423101],[121.2786284,29.4231519],[121.2791756,29.4233481],[121.279413,29.4234701],[121.2795793,29.4236663],[121.2796827,29.4238852],[121.2797711,29.4240724],[121.2799642,29.4243901],[121.2801305,29.4247872],[121.2802016,29.4249466],[121.2804292,29.4253445],[121.2805892,29.4255904]]}},{"type":"Feature","properties":{"osmId":1172129455,"name":null,"sourceUrl":"https://www.openstreetmap.org/way/1172129455","highway":"residential","movement":"road"},"geometry":{"type":"LineString","coordinates":[[121.2970192,29.4330585],[121.297021,29.4330538]]}},{"type":"Feature","properties":{"osmId":1172129456,"name":null,"sourceUrl":"https://www.openstreetmap.org/way/1172129456","bridge":"yes","highway":"residential","layer":"1","movement":"road"},"geometry":{"type":"LineString","coordinates":[[121.296901,29.433325],[121.2970192,29.4330585]]}},{"type":"Feature","properties":{"osmId":1172152273,"name":null,"sourceUrl":"https://www.openstreetmap.org/way/1172152273","highway":"track","source":"maxar","movement":"road"},"geometry":{"type":"LineString","coordinates":[[121.2637283,29.3818432],[121.2638191,29.3817124],[121.264295,29.3815441],[121.2645471,29.3813525],[121.2650565,29.3807449],[121.265137,29.3805673],[121.2651799,29.3803803],[121.265196,29.3802214],[121.2651852,29.3801513],[121.2651316,29.3800438],[121.2650512,29.379969],[121.2648045,29.3796465],[121.2645953,29.379511],[121.2642253,29.3793053],[121.2641502,29.3792212],[121.2641287,29.3790903],[121.2641609,29.3790296],[121.2643004,29.378894],[121.2644344,29.3788193],[121.2644934,29.3787538],[121.2646114,29.3785248],[121.2649093,29.3783799]]}},{"type":"Feature","properties":{"osmId":1176536028,"name":"大里-孔家（原Y439）","sourceUrl":"https://www.openstreetmap.org/way/1176536028","bridge":"yes","highway":"tertiary","layer":"1","ref":"Y410","movement":"road"},"geometry":{"type":"LineString","coordinates":[[121.288561,29.4319097],[121.2889153,29.4318019]]}},{"type":"Feature","properties":{"osmId":1176536030,"name":"大里-孔家（原Y439）","sourceUrl":"https://www.openstreetmap.org/way/1176536030","highway":"tertiary","ref":"Y410","movement":"road"},"geometry":{"type":"LineString","coordinates":[[121.2806812,29.4257842],[121.2807016,29.4258692],[121.2807025,29.4260087],[121.2806801,29.4262698],[121.2806562,29.4265487],[121.2806401,29.4269225],[121.2807045,29.4272075],[121.280856,29.4275491],[121.281021,29.4276701],[121.2811819,29.4277495],[121.2813656,29.427764],[121.2817774,29.4276467],[121.2818846,29.4276421],[121.2820831,29.4277075],[121.2825834,29.4279135],[121.2827,29.4279644],[121.2828073,29.4280485],[121.2829481,29.4281845],[121.283215,29.4287167],[121.2833009,29.4288428],[121.2834618,29.4290064],[121.2836013,29.4291605],[121.2842128,29.4295717],[121.284363,29.4296932],[121.2843964,29.4297504],[121.284417,29.4297858],[121.2844474,29.429838],[121.2844594,29.4298587]]}},{"type":"Feature","properties":{"osmId":1176536031,"name":"大里-孔家（原Y439）","sourceUrl":"https://www.openstreetmap.org/way/1176536031","bridge":"yes","highway":"tertiary","layer":"1","ref":"Y410","movement":"road"},"geometry":{"type":"LineString","coordinates":[[121.2805892,29.4255904],[121.2806812,29.4257842]]}},{"type":"Feature","properties":{"osmId":1176536041,"name":null,"sourceUrl":"https://www.openstreetmap.org/way/1176536041","highway":"unclassified","movement":"road"},"geometry":{"type":"LineString","coordinates":[[121.2958054,29.4333934],[121.2958592,29.4331013]]}},{"type":"Feature","properties":{"osmId":1182057769,"name":null,"sourceUrl":"https://www.openstreetmap.org/way/1182057769","highway":"residential","movement":"road"},"geometry":{"type":"LineString","coordinates":[[121.5405559,29.3223166],[121.5410872,29.3224997],[121.54144,29.3226308],[121.5415894,29.3226864],[121.5421332,29.3229899],[121.5424444,29.3231712],[121.5425784,29.3233136],[121.5425861,29.3235675],[121.5424999,29.3237743],[121.5424275,29.3238791],[121.5422611,29.3239368],[121.5419977,29.3239677],[121.5416341,29.3239664],[121.541403,29.3239315],[121.5412305,29.3238616],[121.5410456,29.3237367],[121.5409224,29.3235836],[121.5408854,29.3234103],[121.5409378,29.323225],[121.5410579,29.3230477],[121.5412151,29.3229469],[121.541363,29.3228435],[121.5414323,29.3226998],[121.54144,29.3226308]]}},{"type":"Feature","properties":{"osmId":1182817679,"name":"越溪-梅枝田（梅歧田-外塘）","sourceUrl":"https://www.openstreetmap.org/way/1182817679","highway":"tertiary","ref":"X412;Y421","movement":"road"},"geometry":{"type":"LineString","coordinates":[[121.5306329,29.2239189],[121.5304203,29.2240289],[121.5284088,29.2249141],[121.5267089,29.2260716],[121.5262814,29.2263997],[121.5256255,29.226903],[121.5246715,29.2273812],[121.5241377,29.2275765],[121.5237484,29.2278281],[121.5232299,29.2281641],[121.5226753,29.2286607],[121.5219179,29.229495],[121.52167,29.2296778],[121.5204885,29.2301816],[121.5188936,29.2308147],[121.5172154,29.2314858],[121.516662,29.2317088],[121.5162412,29.231828],[121.5145903,29.2321806],[121.5122144,29.2326501],[121.5098199,29.2331056],[121.5092159,29.2332361],[121.5088836,29.2332484]]}},{"type":"Feature","properties":{"osmId":1191984826,"name":null,"sourceUrl":"https://www.openstreetmap.org/way/1191984826","highway":"unclassified","movement":"road"},"geometry":{"type":"LineString","coordinates":[[121.28454,29.4299969],[121.2840523,29.4301799],[121.2826028,29.430777],[121.281833,29.4310831],[121.2816035,29.4312526],[121.2800872,29.431541],[121.2797938,29.4315562],[121.2796457,29.4316852],[121.2795627,29.4316206]]}},{"type":"Feature","properties":{"osmId":1191984828,"name":null,"sourceUrl":"https://www.openstreetmap.org/way/1191984828","highway":"unclassified","movement":"road"},"geometry":{"type":"LineString","coordinates":[[121.2794913,29.4315651],[121.2793174,29.4314297]]}},{"type":"Feature","properties":{"osmId":1191984829,"name":null,"sourceUrl":"https://www.openstreetmap.org/way/1191984829","bridge":"yes","highway":"unclassified","layer":"1","movement":"road"},"geometry":{"type":"LineString","coordinates":[[121.2795627,29.4316206],[121.2794913,29.4315651]]}},{"type":"Feature","properties":{"osmId":1191984830,"name":null,"sourceUrl":"https://www.openstreetmap.org/way/1191984830","highway":"track","movement":"road"},"geometry":{"type":"LineString","coordinates":[[121.2843964,29.4297504],[121.283878,29.4299218],[121.283268,29.4301192],[121.2830008,29.4301925],[121.2824779,29.430319],[121.2821177,29.430314],[121.2815542,29.4304455],[121.2809209,29.4305062],[121.2806159,29.4305088],[121.2802557,29.4305796],[121.2797735,29.43082],[121.2793959,29.4312905],[121.2793174,29.4314297],[121.2790705,29.4315941],[121.2787394,29.4317535],[121.2781293,29.4323152],[121.2777633,29.4329299],[121.277589,29.4333297],[121.2766653,29.4337395],[121.2756225,29.4339849],[121.2751519,29.434038],[121.2745535,29.4339495],[121.2741846,29.4337597],[121.2730953,29.4332942],[121.2727351,29.4331323],[121.2723313,29.4330488],[121.2718752,29.4327402],[121.2715092,29.4326213],[121.2712972,29.4325757],[121.2705303,29.4325656]]}},{"type":"Feature","properties":{"osmId":1191984836,"name":"大里-孔家（原Y439）","sourceUrl":"https://www.openstreetmap.org/way/1191984836","highway":"tertiary","ref":"Y410","movement":"road"},"geometry":{"type":"LineString","coordinates":[[121.2845016,29.4299309],[121.28454,29.4299969],[121.2846487,29.4300861],[121.284815,29.4302823],[121.2849491,29.4303477],[121.2852052,29.4303846],[121.2857363,29.4304454],[121.2861292,29.4305393],[121.2865034,29.430679],[121.2868092,29.430964],[121.2873349,29.4315246],[121.2876621,29.4318984],[121.2878298,29.432011],[121.2880484,29.4320246]]}},{"type":"Feature","properties":{"osmId":1191984837,"name":"大里-孔家（原Y439）","sourceUrl":"https://www.openstreetmap.org/way/1191984837","bridge":"yes","highway":"tertiary","layer":"1","ref":"Y410","movement":"road"},"geometry":{"type":"LineString","coordinates":[[121.2844594,29.4298587],[121.2845016,29.4299309]]}},{"type":"Feature","properties":{"osmId":1210271573,"name":null,"sourceUrl":"https://www.openstreetmap.org/way/1210271573","highway":"unclassified","movement":"road"},"geometry":{"type":"LineString","coordinates":[[121.5031487,29.2431652],[121.5031208,29.24338],[121.5031086,29.2434935],[121.5030618,29.2435609],[121.502948,29.2435645],[121.5028403,29.2435272],[121.502411,29.2434337],[121.5022138,29.2434089],[121.5017442,29.2434036],[121.5012787,29.2433504],[121.5011873,29.2432865],[121.5010938,29.2430825],[121.5010511,29.2430205],[121.5008803,29.2429903],[121.50024,29.2429868],[121.5001845,29.2430069],[121.5001079,29.2430347],[121.4994452,29.243345],[121.4993802,29.243432],[121.499309,29.2436324],[121.4991647,29.2439658],[121.4989878,29.2442372],[121.4986622,29.2446934],[121.4986321,29.2447356],[121.4983272,29.2452464]]}},{"type":"Feature","properties":{"osmId":1247263151,"name":null,"sourceUrl":"https://www.openstreetmap.org/way/1247263151","highway":"path","movement":"non-motor"},"geometry":{"type":"LineString","coordinates":[[121.5386726,29.3185464],[121.5387966,29.3183916],[121.5392308,29.3184286],[121.5396225,29.3186056],[121.5399103,29.3188936],[121.5400424,29.3190047],[121.5403964,29.3190499],[121.5405757,29.3189306],[121.5413118,29.3184698],[121.5417365,29.3182846],[121.5429587,29.3185315],[121.5434306,29.3185809],[121.5436666,29.3185109],[121.5439733,29.3182517],[121.5440111,29.3180666],[121.5440063,29.3177785],[121.5440252,29.3175481],[121.5442753,29.3175152],[121.5446528,29.3175893],[121.5448982,29.3176222],[121.5451059,29.3176757],[121.5451719,29.3176839],[121.5451861,29.3175975],[121.5449643,29.3174535],[121.5445585,29.3172971],[121.5443886,29.3171819],[121.5442942,29.3171161],[121.5442753,29.3170091],[121.544483,29.3170626],[121.5446387,29.3171614],[121.5448038,29.3172025],[121.5450351,29.3172107],[121.5452474,29.3172354],[121.5459364,29.3174741],[121.5458986,29.3176469],[121.54596,29.3178444],[121.5461535,29.3180871],[121.5462714,29.3181283],[121.5470501,29.318227],[121.5472813,29.3182106],[121.5478051,29.3182846],[121.5483053,29.3183299],[121.5488952,29.3185274],[121.5490462,29.3185521],[121.5491877,29.3184533],[121.5491924,29.3182188],[121.5491924,29.3180666],[121.5491134,29.3178546],[121.5490612,29.3177276],[121.5488837,29.317638],[121.5488651,29.3175294],[121.5490861,29.317448],[121.5493352,29.3175403],[121.549522,29.3174995],[121.5500014,29.3172471],[121.5504591,29.3169919],[121.550786,29.3170028],[121.550951,29.3170815],[121.550979,29.3171467],[121.5509416,29.3173394],[121.5508732,29.3175077],[121.5507922,29.317638],[121.5507766,29.3183221],[121.5508753,29.3184397]]}},{"type":"Feature","properties":{"osmId":1249481782,"name":null,"sourceUrl":"https://www.openstreetmap.org/way/1249481782","bridge":"yes","highway":"residential","layer":"1","movement":"road"},"geometry":{"type":"LineString","coordinates":[[121.2695946,29.37386],[121.269601,29.374185]]}},{"type":"Feature","properties":{"osmId":1249481783,"name":null,"sourceUrl":"https://www.openstreetmap.org/way/1249481783","highway":"residential","movement":"road"},"geometry":{"type":"LineString","coordinates":[[121.2695945,29.3738551],[121.2695946,29.37386]]}},{"type":"Feature","properties":{"osmId":1252778460,"name":null,"sourceUrl":"https://www.openstreetmap.org/way/1252778460","highway":"unclassified","movement":"road"},"geometry":{"type":"LineString","coordinates":[[121.5292201,29.3358019],[121.5281724,29.335287],[121.5275951,29.3349176],[121.5271981,29.3344638],[121.5269845,29.3339984],[121.5269078,29.3336027],[121.5268544,29.3333846],[121.5268177,29.333117],[121.5268243,29.3329773],[121.5267543,29.3323403],[121.5268076,29.3322297],[121.5270646,29.3317235],[121.5271647,29.3316101],[121.5272147,29.3313541],[121.5272014,29.3309847],[121.5268777,29.3304029],[121.5265707,29.3293498],[121.5263872,29.3285149],[121.5264573,29.3282152],[121.5263939,29.328],[121.5264039,29.3275927],[121.5260535,29.3266036],[121.5257199,29.3255999],[121.5259634,29.3253905],[121.5260602,29.3252595],[121.526227,29.3252537],[121.526464,29.3253759]]}},{"type":"Feature","properties":{"osmId":1252778463,"name":null,"sourceUrl":"https://www.openstreetmap.org/way/1252778463","highway":"service","movement":"road"},"geometry":{"type":"LineString","coordinates":[[121.5386726,29.3185464],[121.5386707,29.3183277],[121.5386859,29.3177588],[121.5388275,29.3167357],[121.5386707,29.3164976]]}},{"type":"Feature","properties":{"osmId":1323745274,"name":"大里-孔家（原Y439）","sourceUrl":"https://www.openstreetmap.org/way/1323745274","highway":"tertiary","ref":"Y410","movement":"road"},"geometry":{"type":"LineString","coordinates":[[121.2884292,29.4319498],[121.288561,29.4319097]]}},{"type":"Feature","properties":{"osmId":1323745275,"name":"大里-孔家（原Y439）","sourceUrl":"https://www.openstreetmap.org/way/1323745275","highway":"tertiary","ref":"Y410","movement":"road"},"geometry":{"type":"LineString","coordinates":[[121.2880484,29.4320246],[121.2884292,29.4319498]]}},{"type":"Feature","properties":{"osmId":1331945415,"name":null,"sourceUrl":"https://www.openstreetmap.org/way/1331945415","highway":"residential","movement":"road"},"geometry":{"type":"LineString","coordinates":[[121.5349065,29.3192356],[121.5349597,29.3191024]]}},{"type":"Feature","properties":{"osmId":1331945416,"name":null,"sourceUrl":"https://www.openstreetmap.org/way/1331945416","highway":"residential","movement":"road"},"geometry":{"type":"LineString","coordinates":[[121.5349597,29.3191024],[121.5350372,29.3189082],[121.5353616,29.3183632],[121.5354839,29.3181076]]}},{"type":"Feature","properties":{"osmId":1331945417,"name":"竹家岙（-许家山）-亦长坪","sourceUrl":"https://www.openstreetmap.org/way/1331945417","highway":"tertiary","ref":"Y408","movement":"road"},"geometry":{"type":"LineString","coordinates":[[121.5256044,29.3148506],[121.5257992,29.315153],[121.5260811,29.3155567],[121.5264352,29.3158093],[121.5268198,29.3158587],[121.5270071,29.3159488],[121.5270709,29.3161466],[121.5275537,29.317213],[121.5276904,29.3179328],[121.5277349,29.3180478],[121.5278541,29.3181017],[121.5290986,29.3185133],[121.5298461,29.3187819],[121.5301795,29.3188309],[121.5305122,29.318765],[121.530952,29.3186719],[121.5316735,29.3184665],[121.5325077,29.3184567],[121.5330483,29.3183428],[121.5339266,29.3181578],[121.5341963,29.3180305],[121.5344389,29.3180077],[121.5350578,29.318094],[121.5352305,29.3181416],[121.535366,29.3181297],[121.5354839,29.3181076]]}},{"type":"Feature","properties":{"osmId":1347060999,"name":null,"sourceUrl":"https://www.openstreetmap.org/way/1347060999","highway":"path","movement":"non-motor"},"geometry":{"type":"LineString","coordinates":[[121.5358268,29.3215762],[121.5359223,29.321666],[121.5360102,29.3217592]]}},{"type":"Feature","properties":{"osmId":1347061003,"name":null,"sourceUrl":"https://www.openstreetmap.org/way/1347061003","bridge":"yes","highway":"footway","movement":"non-motor"},"geometry":{"type":"LineString","coordinates":[[121.5398625,29.3255644],[121.539845,29.3254474],[121.5398437,29.3254182],[121.5398745,29.3253328],[121.5399121,29.325306]]}},{"type":"Feature","properties":{"osmId":1347061004,"name":null,"sourceUrl":"https://www.openstreetmap.org/way/1347061004","highway":"footway","movement":"non-motor"},"geometry":{"type":"LineString","coordinates":[[121.5399121,29.325306],[121.5399724,29.3252989],[121.5399899,29.3252744],[121.5400207,29.3252019],[121.5400368,29.3251528],[121.5400261,29.3251306],[121.5399483,29.3250885],[121.5398262,29.3250452],[121.5396942,29.3250228]]}},{"type":"Feature","properties":{"osmId":1347061005,"name":null,"sourceUrl":"https://www.openstreetmap.org/way/1347061005","highway":"footway","movement":"non-motor"},"geometry":{"type":"LineString","coordinates":[[121.540114,29.3258657],[121.5401602,29.3257725],[121.5399241,29.3256345],[121.5399402,29.3256065],[121.5398625,29.3255644]]}},{"type":"Feature","properties":{"osmId":1347061006,"name":null,"sourceUrl":"https://www.openstreetmap.org/way/1347061006","highway":"path","movement":"non-motor"},"geometry":{"type":"LineString","coordinates":[[121.5399106,29.3274514],[121.5392804,29.327379],[121.5391946,29.3273299],[121.5390632,29.3271849],[121.5390202,29.3270399],[121.5389183,29.3269534],[121.5388352,29.3269043],[121.5387493,29.326757],[121.5387145,29.3266728]]}}]}
